,the_geom,uid_merged,uid,idold,idagency,facname,addressnum,streetname,address,city,boro,borocode,zipcode,latitude,longitude,xcoord,ycoord,bin,bbl,commboard,council,censtract,nta,the_geom_webmercator,facgroup,facsubgrp,factype,capacity,util,captype,utilrate,area,areatype,proptype,optype,opname,opabbrev,overlevel,overagency,overabbrev,agencyjuris,datasource,dataname,dataurl,datadate,pgtable,facdomain
317,0101000020E6100000EFAB72A1F27E52C0A06B5F402F4C4440,,22831,5402095.0,,NYCT Facility,2125,West   13 Street,2125 West   13 Street,Brooklyn,Brooklyn,3.0,11223.0,40.595192,-73.983559,988816.0174,156121.4409,3192227,3071140001,313.0,47,40200,BK29,0101000020110F00007E685B07C96A5FC179A06AACBBE45241,Transportation,Rail Yards and Maintenance,NYCT Subway Yard,,,,,,,,Public,Metropolitan Transportation Authority,MTA,MTA: State,Metropolitan Transportation Authority,MTA,,MTA,MTA: Selected Facilities and Program Sites Database,MTA: http://www1.nyc.gov/site/planning/data-maps/open-data/dwn-selfac.page,MTA: 2015-03-01,mta_facilities_sfpsd,Core Infrastructure and Transportation
447,0101000020E610000078962023A07852C097A949F086684440,,125893,5303202001.0,,Advance Transit,1340,Lafayette Avenue,1340 Lafayette Avenue,Bronx,Bronx,2.0,10474.0,40.816618,-73.884774,1016144.0,236813.9998,,2027630335,202.0,17,11700,BX27,0101000020110F0000ABD0D1DA0B605FC15DA5E5977C045341,Transportation,Bus Depots and Terminals,MTA Paratransit Vehicle Depot,,,,,,,,Non-public,Proprietary,Non-public,MTA: State,Metropolitan Transportation Authority,MTA,,MTA,MTA: Selected Facilities and Program Sites Database,MTA: http://www1.nyc.gov/site/planning/data-maps/open-data/dwn-selfac.page,MTA: 2015-03-01,mta_facilities_sfpsd,Core Infrastructure and Transportation
717,0101000020E6100000CBF5B6990A7952C015191D9084674440,,127785,5402064.0,,Tiffany,1170,Oak Point,1170 Oak Point,Bronx,Bronx,2.0,10474.0,40.808733000000004,-73.891272,1014349.0,233939.0,,2027710030,202.0,17,9300,BX27,0101000020110F0000EE967AB1C0605FC1DE082AA85A035341,Transportation,Rail Yards and Maintenance,NYCT Maintenance and Other Facility,,,,,,,,Public,Metropolitan Transportation Authority,MTA,MTA: State,Metropolitan Transportation Authority,MTA,,MTA,MTA: Selected Facilities and Program Sites Database,MTA: http://www1.nyc.gov/site/planning/data-maps/open-data/dwn-selfac.page,MTA: 2015-03-01,mta_facilities_sfpsd,Core Infrastructure and Transportation
803,0101000020E61000002524D236FE8052C0D5D0066003584440,,116546,,,South Battery,1,Governors Island,1 Governors Island,New York,Manhattan,1.0,10004.0,40.687603,-74.015516,979947.0001,189789.0001,,1000010010,101.0,1,500,MN99,0101000020110F00001BAE5263426E5FC1467C86F3F8F15241,Parks and Plazas,Parks,City-State Park,,,,,TGI: 0.500,TGI: Acres,,Public,Trust for Governors Island,TGI,TGI: City-State,Trust for Governors Island,TGI,,TGI,TGI: Selected Facilities and Program Sites Database,TGI: http://www1.nyc.gov/site/planning/data-maps/open-data/dwn-selfac.page,TGI: 2015-03-01,tgi_facilities_sfpsd,"Parks, Gardens, and Historical Sites"
911,0101000020E6100000FC1A4982707152C0DE3B6A4C88594440,95192,23250,5405004.0,,Holban Yard,,,Brinkerhoff Avenue,Jamaica,Queens,4.0,11433.0,40.699472,-73.772492,1047334.0,194195.0001,4585370,4103040007;4103430005,412.0,27,42400,QN08,0101000020110F0000CA8B9D0FD7535FC1DD5AC199ACF35241,Transportation,Rail Yards and Maintenance,LIRR Yard,,,,,,,,Public,Metropolitan Transportation Authority,MTA,MTA: State,Metropolitan Transportation Authority,MTA,,MTA,MTA: Selected Facilities and Program Sites Database,MTA: http://www1.nyc.gov/site/planning/data-maps/open-data/dwn-selfac.page,MTA: 2015-03-01,mta_facilities_sfpsd,Core Infrastructure and Transportation
957,0101000020E6100000CA181F662F7B52C025EA059FE6684440,,57224,5403001.0,,Mott Haven Yard,149,St,149 St,Bronx,Bronx,2.0,10451.0,40.819538,-73.924768,1005073.0,237866.0,,2024430004,204.0,17,6100,BX14,0101000020110F00007226F8E164645FC18CA5EBF8E7045341,Transportation,Rail Yards and Maintenance,Metro-North Yard,,,,,,,,Public,Metropolitan Transportation Authority,MTA,MTA: State,Metropolitan Transportation Authority,MTA,,MTA,MTA: Selected Facilities and Program Sites Database,MTA: http://www1.nyc.gov/site/planning/data-maps/open-data/dwn-selfac.page,MTA: 2015-03-01,mta_facilities_sfpsd,Core Infrastructure and Transportation
1155,0101000020E61000000C1F1153227652C0EA95B20C71604440,,182118,5302481001.0,,Casey Stengel Depot,,,Horace Harding Expwy,Corona,Queens,4.0,11368.0,40.75345,-73.845845,1026959.819,213816.3047,4558183,4020181000,481.0,21,38302,QN99,0101000020110F000077D23477D05B5FC10F2325D56AFB5241,Transportation,Bus Depots and Terminals,MTA Bus Depot,,,,,,,,Public,Metropolitan Transportation Authority,MTA,MTA: State,Metropolitan Transportation Authority,MTA,,MTA,MTA: Selected Facilities and Program Sites Database,MTA: http://www1.nyc.gov/site/planning/data-maps/open-data/dwn-selfac.page,MTA: 2015-03-01,mta_facilities_sfpsd,Core Infrastructure and Transportation
1191,0101000020E6100000E371512D227A52C0C4EBFA05BB534440,,119124,5401025.0,,Linden,1400,Linden Boulevard,1400 Linden Boulevard,Brooklyn,Brooklyn,3.0,11212.0,40.654145,-73.908336,1009684.253,177612.4613,3083069,3036420022,316.0,42,92200,BK81,0101000020110F0000E9AA0C959B625FC111D0A14C2DED5241,Transportation,Rail Yards and Maintenance,NYCT Subway Yard,,,,,,,,Public,Metropolitan Transportation Authority,MTA,MTA: State,Metropolitan Transportation Authority,MTA,,MTA,MTA: Selected Facilities and Program Sites Database,MTA: http://www1.nyc.gov/site/planning/data-maps/open-data/dwn-selfac.page,MTA: 2015-03-01,mta_facilities_sfpsd,Core Infrastructure and Transportation
1212,0101000020E6100000111956F1468152C0B03A72A433584440,,116544,,,Hammock Grove,1,Governors Island,1 Governors Island,New York,Manhattan,1.0,10004.0,40.689076,-74.01995500000001,978715.9999,190326.0,,1000010010,101.0,1,500,MN99,0101000020110F0000FEB9BEECBD6E5FC1B72463032FF25241,Parks and Plazas,Parks,City-State Park,,,,,TGI: 10.000,TGI: Acres,,Public,Trust for Governors Island,TGI,TGI: City-State,Trust for Governors Island,TGI,,TGI,TGI: Selected Facilities and Program Sites Database,TGI: http://www1.nyc.gov/site/planning/data-maps/open-data/dwn-selfac.page,TGI: 2015-03-01,tgi_facilities_sfpsd,"Parks, Gardens, and Historical Sites"
1450,0101000020E6100000C2F869DC9B7252C08143A852B3594440,,54734,5302412002.0,,Jamaica Depot,165-18,South Road,165-18 South Road,Jamaica,Queens,4.0,11433.0,40.700784999999996,-73.790763,1042266.603,194660.4799,4216415,4101640046,412.0,27,25400,QN01,0101000020110F0000E3E0648AD3555FC1781E7DCCDCF35241,Transportation,Bus Depots and Terminals,MTA Bus Depot,,,,,,,,Public,Metropolitan Transportation Authority,MTA,MTA: State,Metropolitan Transportation Authority,MTA,,MTA,MTA: Selected Facilities and Program Sites Database,MTA: http://www1.nyc.gov/site/planning/data-maps/open-data/dwn-selfac.page,MTA: 2015-03-01,mta_facilities_sfpsd,Core Infrastructure and Transportation
1523,0101000020E610000073F4F8BD4D7952C0FEB968C8785A4440,,97078,5302405001.0,,Fresh Pond Depot,66-99,Fresh Pond Road,66-99 Fresh Pond Road,Ridgewood,Queens,4.0,11385.0,40.706811,-73.89537,1013259.051,196804.0117,4087876,4036190003,405.0,30,61301,QN20,0101000020110F0000F4DF76BD32615FC106541904BAF45241,Transportation,Bus Depots and Terminals,MTA Bus Depot,,,,,,,,Public,Metropolitan Transportation Authority,MTA,MTA: State,Metropolitan Transportation Authority,MTA,,MTA,MTA: Selected Facilities and Program Sites Database,MTA: http://www1.nyc.gov/site/planning/data-maps/open-data/dwn-selfac.page,MTA: 2015-03-01,mta_facilities_sfpsd,Core Infrastructure and Transportation
1526,0101000020E6100000A60D87A5817B52C03A22DFA5D45F4440,,24068,5408001.0,,Sunnyside Yard,,,Skillman Avenue,Long Island City,Queens,4.0,11101.0,40.748677,-73.929788,1003704.1390000001,212047.7321,4550832,4002140001,402.0,26,17100,QN31,0101000020110F0000B801B296F0645FC1E58D347DBBFA5241,Transportation,Rail Yards and Maintenance,Amtrak Maintenance and Other Facility,,,,,,,,Public,Amtrak,Amtrak,Amtrak: Federal,Amtrak,Amtrak,,Amtrak,Amtrak: Selected Facilities and Program Sites Database,Amtrak: http://www1.nyc.gov/site/planning/data-maps/open-data/dwn-selfac.page,Amtrak: 2015-03-01,amtrak_facilities_sfpsd,Core Infrastructure and Transportation
1827,0101000020E61000007BA2EBC20F7A52C0BDFF8F1326604440,,116204,5402092.0,,NYCT Facility,54-21,37 Avenue,54-21 37 Avenue,Woodside,Queens,4.0,11377.0,40.751162,-73.907212,1009958.583,212959.0052,4027258,4011930001,402.0,26,25500,QN63,0101000020110F0000FEAB2B4D7C625FC1FD291FC716FB5241,Transportation,Rail Yards and Maintenance,NYCT Subway Yard,,,,,,,,Public,Metropolitan Transportation Authority,MTA,MTA: State,Metropolitan Transportation Authority,MTA,,MTA,MTA: Selected Facilities and Program Sites Database,MTA: http://www1.nyc.gov/site/planning/data-maps/open-data/dwn-selfac.page,MTA: 2015-03-01,mta_facilities_sfpsd,Core Infrastructure and Transportation
1928,0101000020E6100000C780ECF5EE7F52C0D252793BC2614440,118940;199800;160801;2983;47543;134759,115763,1500000000000.0,,Hudson River Park,,,Battery Pl to W 59 St,New York,Manhattan,1.0,10036.0,40.763740000000006,-73.99896,984538.0001,217528.0,,,104.0,3,12900,MN15,0101000020110F00002ABDF8A2756C5FC16B1BFAE4E4FC5241,Parks and Plazas,Parks,City-State Park,,,,,HRPT: 550.000,HRPT: Acres,,Public,Hudson River Park Trust,HRPT,HRPT: City-State,Hudson River Park Trust,HRPT,,HRPT,HRPT: Selected Facilities and Program Sites Database,HRPT: http://www1.nyc.gov/site/planning/data-maps/open-data/dwn-selfac.page,HRPT: 2015-03-01,hrpt_facilities_sfpsd,"Parks, Gardens, and Historical Sites"
2234,0101000020E6100000A8380EBC5A7D52C028D714C8EC5E4440,129507;59396;157805,129490,5405007.0,,Long Island City Yard,2,St,2 St,Long Island City,Queens,4.0,11101.0,40.741601,-73.958663,995704.808,209464.5508,4457272;4542949;4542976,4000130001;4000130035;4000130135;4000370001,402.0,26,100,QN31,0101000020110F000061441D2D14685FC1851B8190B7F95241,Transportation,Rail Yards and Maintenance,LIRR Yard,,,,,,,,Public,Metropolitan Transportation Authority,MTA,MTA: State,Metropolitan Transportation Authority,MTA,,MTA,MTA: Selected Facilities and Program Sites Database,MTA: http://www1.nyc.gov/site/planning/data-maps/open-data/dwn-selfac.page,MTA: 2015-03-01,mta_facilities_sfpsd,Core Infrastructure and Transportation
2257,0101000020E61000005F0839EFFF7552C0CE52B29C84684440,,110857,5303209002.0,,Gvc II Para Administration,450,Zerega Avenue,450 Zerega Avenue,Bronx,Bronx,2.0,10473.0,40.816547,-73.843746,1027500.43,236805.7527,2021302,2035130032,209.0,18,9000,BX09,0101000020110F0000ADC0FD0C965B5FC123BF83FB79045341,Transportation,Bus Depots and Terminals,MTA Paratransit Vehicle Depot,,,,,,,,Non-public,Proprietary,Non-public,MTA: State,Metropolitan Transportation Authority,MTA,,MTA,MTA: Selected Facilities and Program Sites Database,MTA: http://www1.nyc.gov/site/planning/data-maps/open-data/dwn-selfac.page,MTA: 2015-03-01,mta_facilities_sfpsd,Core Infrastructure and Transportation
2272,0101000020E610000027F73B14057A52C00D1D3BA8C4534440,119139,162758,5402085.0,,NYCT Facility,1029,Rockaway Avenue,1029 Rockaway Avenue,Brooklyn,Brooklyn,3.0,11236.0,40.654439,-73.90656,1010176.8309999999,177719.8418,3083083,3036440024,316.0,42,109800,BK82,0101000020110F0000D7E707286A625FC143938E1538ED5241,Transportation,Rail Yards and Maintenance,NYCT Subway Yard,,,,,,,City Owned,Public,Metropolitan Transportation Authority,MTA,MTA: State,Metropolitan Transportation Authority,MTA,MTA,MTA;NYCDCAS,MTA: Selected Facilities and Program Sites Database;NYCDCAS: City Owned and Leased Properties,MTA: http://www1.nyc.gov/site/planning/data-maps/open-data/dwn-selfac.page;NYCDCAS: http://www1.nyc.gov/site/planning/data-maps/open-data/dwn-colp.page,MTA: 2015-03-01;NYCDCAS: 2017-06-01,dcas_facilities_colp;mta_facilities_sfpsd,Core Infrastructure and Transportation
2333,0101000020E61000007592AD2EA77C52C09C8C2AC3B8614440,,162572,,,Northtown Park,40,River Road,40 River Road,New York,Manhattan,1.0,10044.0,40.763451,-73.947704,998736.9999,217426.9999,,1013730001,108.0,5,23801,MN31,0101000020110F0000F38E4B30E3665FC1125A8C46DAFC5241,Parks and Plazas,Parks,City-State Park,,,,,RIOC: 1.020,RIOC: Acres,City Owned,Public,Roosevelt Island Operating Corporation,RIOC,RIOC: State,Roosevelt Island Operating Corporation,RIOC,NYCDEP;NYCDOE;NYCFDNY,NYCDCAS;RIOC,NYCDCAS: City Owned and Leased Properties;RIOC: Selected Facilities and Program Sites Database,NYCDCAS: http://www1.nyc.gov/site/planning/data-maps/open-data/dwn-colp.page;RIOC: http://www1.nyc.gov/site/planning/data-maps/open-data/dwn-selfac.page,NYCDCAS: 2017-06-01;RIOC: 2015-03-01,dcas_facilities_colp;rioc_facilities_sfpsd,"Parks, Gardens, and Historical Sites"
2390,0101000020E610000069C36169E08C52C001309E4143434440,,167211,5306003.0,,Prince's Bay,,,Seguine Avenue,Staten Island,Staten Island,5.0,10309.0,40.525490000000005,-74.201197,928316.0,130791.0,,5066810008,503.0,51,19800,SI01,0101000020110F0000CAB7D7DD71825FC186AB495FC2DA5241,Transportation,Parking Lots and Garages,Public Park and Ride Lot,,,,,,,,Public,Metropolitan Transportation Authority,MTA,MTA: State,Metropolitan Transportation Authority,MTA,,MTA,MTA: Selected Facilities and Program Sites Database,MTA: http://www1.nyc.gov/site/planning/data-maps/open-data/dwn-selfac.page,MTA: 2015-03-01,mta_facilities_sfpsd,Core Infrastructure and Transportation
2495,0101000020E61000004208C897507F52C0C76471FF91594440,,33496,5402063.0,,Sands St,40,Sands Street,40 Sands Street,Brooklyn,Brooklyn,3.0,11201.0,40.699768,-73.989294,987218.4815,194221.0424,3000169,3000750109,302.0,33,1300,BK38,0101000020110F0000671E10A2686B5FC1E0415A77B7F35241,Transportation,Rail Yards and Maintenance,NYCT Maintenance and Other Facility,,,,,,,,Public,Metropolitan Transportation Authority,MTA,MTA: State,Metropolitan Transportation Authority,MTA,,MTA,MTA: Selected Facilities and Program Sites Database,MTA: http://www1.nyc.gov/site/planning/data-maps/open-data/dwn-selfac.page,MTA: 2015-03-01,mta_facilities_sfpsd,Core Infrastructure and Transportation
2711,0101000020E610000027A25F5B3F8052C08FAB915D69534440,,182848,5402082.0,,NYCT Facility,38,St & 5 Ave,38 St & 5 Ave,Brooklyn,Brooklyn,3.0,11232.0,40.651653,-74.003867,983176.9998,176691.0,,3007050041,307.0,38,8400,BK32,0101000020110F0000AC94A232FE6C5FC1C4E6FEE2D1EC5241,Transportation,Rail Yards and Maintenance,NYCT Subway Yard,,,,,,,,Public,Metropolitan Transportation Authority,MTA,MTA: State,Metropolitan Transportation Authority,MTA,,MTA,MTA: Selected Facilities and Program Sites Database,MTA: http://www1.nyc.gov/site/planning/data-maps/open-data/dwn-selfac.page,MTA: 2015-03-01,mta_facilities_sfpsd,Core Infrastructure and Transportation
2823,0101000020E6100000FA97A432C57C52C03D61890794614440,,114695,,,Southpoint,40,River Road,40 River Road,New York,Manhattan,1.0,10044.0,40.76233,-73.949536,998229.651,217018.0114,,1013730001,108.0,5,23801,MN31,0101000020110F00000166482C16675FC11FA92A16B1FC5241,Parks and Plazas,Parks,City-State Park,,,,,RIOC: 12.110,RIOC: Acres,City Owned,Public,Roosevelt Island Operating Corporation,RIOC,RIOC: State,Roosevelt Island Operating Corporation,RIOC,NYCDEP;NYCDOE;NYCFDNY,NYCDCAS;RIOC,NYCDCAS: City Owned and Leased Properties;RIOC: Selected Facilities and Program Sites Database,NYCDCAS: http://www1.nyc.gov/site/planning/data-maps/open-data/dwn-colp.page;RIOC: http://www1.nyc.gov/site/planning/data-maps/open-data/dwn-selfac.page,NYCDCAS: 2017-06-01;RIOC: 2015-03-01,dcas_facilities_colp;rioc_facilities_sfpsd,"Parks, Gardens, and Historical Sites"
3030,0101000020E61000003E22A644128052C0BBD1C77C40564440,,29601,5402098.0,,NYCT Facility,201,Bush Street,201 Bush Street,Brooklyn,Brooklyn,3.0,11231.0,40.673843,-74.001115,983940.7271,184775.5267,3008563,3005620018,306.0,38,5300,BK33,0101000020110F0000F1E2279CB16C5FC12E4481FDFFEF5241,Transportation,Rail Yards and Maintenance,NYCT Subway Yard,,,,,,,,Public,Metropolitan Transportation Authority,MTA,MTA: State,Metropolitan Transportation Authority,MTA,,MTA,MTA: Selected Facilities and Program Sites Database,MTA: http://www1.nyc.gov/site/planning/data-maps/open-data/dwn-selfac.page,MTA: 2015-03-01,mta_facilities_sfpsd,Core Infrastructure and Transportation
3231,0101000020E610000035ED629AE97952C0F2D3B837BF534440,,119171,5402067.0,,Linden,1500,Linden Blvd @ Rockaway Ave,1500 Linden Blvd @ Rockaway Ave,Brooklyn,Brooklyn,3.0,11236.0,40.654272999999996,-73.904883,1010642.125,177660.1207,3333459,3036440024,316.0,42,109800,BK82,0101000020110F00008923557C3B625FC12A78AAFE31ED5241,Transportation,Rail Yards and Maintenance,NYCT Maintenance and Other Facility,,,,,,,City Owned,Public,Metropolitan Transportation Authority,MTA,MTA: State,Metropolitan Transportation Authority,MTA,MTA,MTA;NYCDCAS,MTA: Selected Facilities and Program Sites Database;NYCDCAS: City Owned and Leased Properties,MTA: http://www1.nyc.gov/site/planning/data-maps/open-data/dwn-selfac.page;NYCDCAS: http://www1.nyc.gov/site/planning/data-maps/open-data/dwn-colp.page,MTA: 2015-03-01;NYCDCAS: 2017-06-01,dcas_facilities_colp;mta_facilities_sfpsd,Core Infrastructure and Transportation
3335,0101000020E6100000D234289A078052C092921E8656614440,,181625,5302104001.0,,M J Quill Depot,525,11 Avenue,525 11 Avenue,New York,Manhattan,1.0,10018.0,40.760453000000005,-74.00046400000001,984121.4332,216330.2378,1027086,1010880001,104.0,3,11700,MN13,0101000020110F000092FA237E9F6C5FC10328131F6CFC5241,Transportation,Bus Depots and Terminals,MTA Bus Depot,,,,,,,,Public,Metropolitan Transportation Authority,MTA,MTA: State,Metropolitan Transportation Authority,MTA,,MTA,MTA: Selected Facilities and Program Sites Database,MTA: http://www1.nyc.gov/site/planning/data-maps/open-data/dwn-selfac.page,MTA: 2015-03-01,mta_facilities_sfpsd,Core Infrastructure and Transportation
3384,0101000020E6100000844BC79C677752C091ED7C3F35564440,;103175,103172,5402079.0,;,NYCT Facility,1434,Sutter Avenue,1434 Sutter Avenue,Brooklyn,Brooklyn,3.0,11208.0,40.6735,-73.86569899999999,1021504.0,184679.0001,,3042710010,305.0,42,120800,BK82,0101000020110F00000838FCFFF85D5FC1286A7D67F3EF5241,Transportation,Rail Yards and Maintenance,NYCT Subway Yard,,,,,,,,Public,Metropolitan Transportation Authority,MTA,MTA: State,Metropolitan Transportation Authority,MTA,,MTA,MTA: Selected Facilities and Program Sites Database,MTA: http://www1.nyc.gov/site/planning/data-maps/open-data/dwn-selfac.page,MTA: 2015-03-01,mta_facilities_sfpsd,Core Infrastructure and Transportation
3779,0101000020E61000009D9D0C8E927A52C0295C8FC2F56E4440,55576;55577,123900,5401022.0,,207 St.,3961,10 Ave at 210 St,3961 10 Ave at 210 St,New York,Manhattan,1.0,10034.0,40.866875,-73.915195,1007706.0,255115.0,,1021890001,112.0,10,29900,MN01,0101000020110F0000BD5FA2775A635FC12E4DB662B50B5341,Transportation,Rail Yards and Maintenance,NYCT Subway Yard,,,,,,,City Owned,Public,Metropolitan Transportation Authority,MTA,MTA: State,Metropolitan Transportation Authority,MTA,MTA,MTA;NYCDCAS,MTA: Selected Facilities and Program Sites Database;NYCDCAS: City Owned and Leased Properties,MTA: http://www1.nyc.gov/site/planning/data-maps/open-data/dwn-selfac.page;NYCDCAS: http://www1.nyc.gov/site/planning/data-maps/open-data/dwn-colp.page,MTA: 2015-03-01;NYCDCAS: 2017-06-01,dcas_facilities_colp;mta_facilities_sfpsd,Core Infrastructure and Transportation
3880,0101000020E6100000D8F50B76C37352C096218E7571594440,,83891,5405006.0,,Johnson Ave Yard,94,Ave,94 Ave,Jamaica,Queens,4.0,11435.0,40.698775,-73.808805,1037265.6340000001,193916.7823,4798017,4099890070,412.0,27,20800,QN61,0101000020110F0000199BACA5C9575FC1A4F1E40393F35241,Transportation,Rail Yards and Maintenance,LIRR Yard,,,,,,,,Public,Metropolitan Transportation Authority,MTA,MTA: State,Metropolitan Transportation Authority,MTA,,MTA,MTA: Selected Facilities and Program Sites Database,MTA: http://www1.nyc.gov/site/planning/data-maps/open-data/dwn-selfac.page,MTA: 2015-03-01,mta_facilities_sfpsd,Core Infrastructure and Transportation
4194,0101000020E6100000A12E52280B7152C0890AD5CDC5614440,95871,148295,5405014.0,,Bayside Team Track Yard,41,Ave,41 Ave,Bayside,Queens,4.0,11361.0,40.763849,-73.766306,1048986.841,217653.8881,4567062;4603825,4062900009;4063160001,411.0,19,111300,QN46,0101000020110F00009DA2C8E72A535FC14D1045E6E8FC5241,Transportation,Rail Yards and Maintenance,LIRR Yard,,,,,,,,Public,Metropolitan Transportation Authority,MTA,MTA: State,Metropolitan Transportation Authority,MTA,,MTA,MTA: Selected Facilities and Program Sites Database,MTA: http://www1.nyc.gov/site/planning/data-maps/open-data/dwn-selfac.page,MTA: 2015-03-01,mta_facilities_sfpsd,Core Infrastructure and Transportation
4806,0101000020E6100000E9F010C64F7B52C0ED2AA4FCA4564440,,153666,5303308001.0,,Mv Transportation,1882,Atlantic Avenue,1882 Atlantic Avenue,Brooklyn,Brooklyn,3.0,11233.0,40.67691,-73.926744,1004569.6140000001,185901.3724,3337881,3013380017,308.0,36,30700,BK61,0101000020110F00009D9EE0DF9B645FC14C29818870F05241,Transportation,Bus Depots and Terminals,MTA Paratransit Vehicle Depot,,,,,,,,Non-public,Proprietary,Non-public,MTA: State,Metropolitan Transportation Authority,MTA,,MTA,MTA: Selected Facilities and Program Sites Database,MTA: http://www1.nyc.gov/site/planning/data-maps/open-data/dwn-selfac.page,MTA: 2015-03-01,mta_facilities_sfpsd,Core Infrastructure and Transportation
5030,0101000020E61000004450357A357F52C07026A60BB1584440,,114438,5402093.0,,NYCT Facility,370,Jay Street,370 Jay Street,Brooklyn,Brooklyn,3.0,11201.0,40.692903,-73.987639,987677.7053,191719.8605,3000262,3001400111,302.0,33,1100,BK38,0101000020110F0000623D1A933A6B5FC1C87E267ABBF25241,Transportation,Rail Yards and Maintenance,NYCT Subway Yard,,,,,,,City Owned,Public,Metropolitan Transportation Authority,MTA,MTA: State,Metropolitan Transportation Authority,MTA,NYCDCAS;NYCEDC,MTA;NYCDCAS,MTA: Selected Facilities and Program Sites Database;NYCDCAS: City Owned and Leased Properties,MTA: http://www1.nyc.gov/site/planning/data-maps/open-data/dwn-selfac.page;NYCDCAS: http://www1.nyc.gov/site/planning/data-maps/open-data/dwn-colp.page,MTA: 2015-03-01;NYCDCAS: 2017-06-01,dcas_facilities_colp;mta_facilities_sfpsd,Core Infrastructure and Transportation
5117,0101000020E6100000C6A4BF97C27952C0C1525DC0CB564440,76451,76456,5402074.0,,NYCT Facility,2020,Broadway,2020 Broadway,Brooklyn,Brooklyn,3.0,11207.0,40.678093,-73.902502,1011293.305,186339.0887,3339271,3015470025,305.0,37,36700,BK79,0101000020110F00003BF60539F9615FC1049DCEF19BF05241,Transportation,Rail Yards and Maintenance,NYCT Maintenance and Other Facility,,,,,,,City Owned,Public,Metropolitan Transportation Authority,MTA,MTA: State,Metropolitan Transportation Authority,MTA,MTA,MTA;NYCDCAS,MTA: Selected Facilities and Program Sites Database;NYCDCAS: City Owned and Leased Properties,MTA: http://www1.nyc.gov/site/planning/data-maps/open-data/dwn-selfac.page;NYCDCAS: http://www1.nyc.gov/site/planning/data-maps/open-data/dwn-colp.page,MTA: 2015-03-01;NYCDCAS: 2017-06-01,dcas_facilities_colp;mta_facilities_sfpsd,Core Infrastructure and Transportation
5287,0101000020E6100000CAC0012D5D7752C08BC22E8A1E564440,,103171,5401020.0,,Pitkin,1434,Sutter Avenue,1434 Sutter Avenue,Brooklyn,Brooklyn,3.0,11208.0,40.672807,-73.865062,1021681.0,184427.0,,3042710010,305.0,42,120800,BK82,0101000020110F0000A754B645E75D5FC10B46C1F9D9EF5241,Transportation,Rail Yards and Maintenance,NYCT Subway Yard,,,,,,,,Public,Metropolitan Transportation Authority,MTA,MTA: State,Metropolitan Transportation Authority,MTA,,MTA,MTA: Selected Facilities and Program Sites Database,MTA: http://www1.nyc.gov/site/planning/data-maps/open-data/dwn-selfac.page,MTA: 2015-03-01,mta_facilities_sfpsd,Core Infrastructure and Transportation
5496,0101000020E6100000B3EBDE8AC47852C0172D40DB6A704440,19668,105027,5401003.0,,Jerome (Mosholu),3191,Jerome Ave at 205 St,3191 Jerome Ave at 205 St,Bronx,Bronx,2.0,10468.0,40.878261,-73.886996,1015500.0,259271.9999,,2032510401;2032510450,207.0,11,40900,BX28,0101000020110F0000147C57B149605FC1899D3E6F580D5341,Transportation,Rail Yards and Maintenance,NYCT Subway Yard,,,,,,,City Owned,Public,Metropolitan Transportation Authority,MTA,MTA: State,Metropolitan Transportation Authority,MTA,NYCDEP,MTA;NYCDCAS,MTA: Selected Facilities and Program Sites Database;NYCDCAS: City Owned and Leased Properties,MTA: http://www1.nyc.gov/site/planning/data-maps/open-data/dwn-selfac.page;NYCDCAS: http://www1.nyc.gov/site/planning/data-maps/open-data/dwn-colp.page,MTA: 2015-03-01;NYCDCAS: 2017-06-01,dcas_facilities_colp;mta_facilities_sfpsd,Core Infrastructure and Transportation
5574,0101000020E6100000C4B0C398F47F52C089B48D3F51594440,121563;155714;160293;122632;160136;161634;31275;54267;45967,121551,,,Brooklyn Bridge Park,146,Furman Street,146 Furman Street,Brooklyn,Brooklyn,3.0,11201.0,40.697792,-73.99930400000001,984442.9999,193500.9999,,3000010001;3000160001;3000250012;3000260001;3001990003;3001990100;3002450015;3002450029,302.0,1,900,MN25,0101000020110F00006113C8357F6C5FC19DA28BEE6EF35241,Parks and Plazas,Parks,City-State Park,,,,,BBPC: 85.000,BBPC: Acres,,Public,Brooklyn Bridge Park Corporation,BBPC,BBPC: City-State,Brooklyn Bridge Park Corporation,BBPC,,BBPC,BBPC: Selected Facilities and Program Sites Database,BBPC: http://www1.nyc.gov/site/planning/data-maps/open-data/dwn-selfac.page,BBPC: 2015-03-01,bbpc_facilities_sfpsd,"Parks, Gardens, and Historical Sites"
5601,0101000020E6100000DA571EA4A77952C070EF1AF4A5714440,122463,122455,5401002.0,,240 St.,5911,Broadway at 240 St,5911 Broadway at 240 St,Bronx,Bronx,2.0,10463.0,40.887877,-73.90085699999999,1011663.0,262771.0001,2084012,2057760401,208.0,11,28500,BX29,0101000020110F000010AB4E71CB615FC12EC79365BA0E5341,Transportation,Rail Yards and Maintenance,NYCT Subway Yard,,,,,,,City Owned,Public,Metropolitan Transportation Authority,MTA,MTA: State,Metropolitan Transportation Authority,MTA,MTA,MTA;NYCDCAS,MTA: Selected Facilities and Program Sites Database;NYCDCAS: City Owned and Leased Properties,MTA: http://www1.nyc.gov/site/planning/data-maps/open-data/dwn-selfac.page;NYCDCAS: http://www1.nyc.gov/site/planning/data-maps/open-data/dwn-colp.page,MTA: 2015-03-01;NYCDCAS: 2017-06-01,dcas_facilities_colp;mta_facilities_sfpsd,Core Infrastructure and Transportation
5792,0101000020E610000054E23AC6157D52C03123BC3D08614440,,10007,,,Southtown Commons,40,River Road,40 River Road,New York,Manhattan,1.0,10044.0,40.758064000000005,-73.954454,996868.0,215462.9999,,1013730001,108.0,5,23801,MN31,0101000020110F000028AF500A9F675FC134EED25814FC5241,Parks and Plazas,Parks,City-State Park,,,,,RIOC: 0.380,RIOC: Acres,City Owned,Public,Roosevelt Island Operating Corporation,RIOC,RIOC: State,Roosevelt Island Operating Corporation,RIOC,NYCDEP;NYCDOE;NYCFDNY,NYCDCAS;RIOC,NYCDCAS: City Owned and Leased Properties;RIOC: Selected Facilities and Program Sites Database,NYCDCAS: http://www1.nyc.gov/site/planning/data-maps/open-data/dwn-colp.page;RIOC: http://www1.nyc.gov/site/planning/data-maps/open-data/dwn-selfac.page,NYCDCAS: 2017-06-01;RIOC: 2015-03-01,dcas_facilities_colp;rioc_facilities_sfpsd,"Parks, Gardens, and Historical Sites"
6055,0101000020E61000006E197096927452C05E807D74EA704440,,123652,5302210001.0,,Eastchester Depot,3320,Hutchinson Avenue,3320 Hutchinson Avenue,Bronx,Bronx,2.0,10475.0,40.882155,-73.82144699999999,1033624.06,260721.12,2072452,2052560210,210.0,12,46201,BX13,0101000020110F00008B3BF07829595FC1C59FF0C3E70D5341,Transportation,Bus Depots and Terminals,MTA Bus Depot,,,,,,,City Leased,Public,Metropolitan Transportation Authority,MTA,MTA: State,Metropolitan Transportation Authority,MTA,,MTA;NYCDCAS,MTA: Selected Facilities and Program Sites Database;NYCDCAS: City Owned and Leased Properties,MTA: http://www1.nyc.gov/site/planning/data-maps/open-data/dwn-selfac.page;NYCDCAS: http://www1.nyc.gov/site/planning/data-maps/open-data/dwn-colp.page,MTA: 2015-03-01;NYCDCAS: 2017-06-01,dcas_facilities_colp;mta_facilities_sfpsd,Core Infrastructure and Transportation
6326,0101000020E6100000F4531C075E7952C0F777B6476F5A4440,22610;1697;190298,155148,5401016.0,,Fresh Pond,66-99,Fresh Pond Road,66-99 Fresh Pond Road,Ridgewood,Queens,4.0,11385.0,40.706521,-73.896364,1012983.53,196698.2111,4521890;4550133;4551724,4036190003;4036190110;4036670309;4036670722,405.0,30,61301,QN20,0101000020110F0000C2422A674E615FC16ADA985EAFF45241,Transportation,Rail Yards and Maintenance,NYCT Subway Yard,,,,,,,,Public,Metropolitan Transportation Authority,MTA,MTA: State,Metropolitan Transportation Authority,MTA,,MTA,MTA: Selected Facilities and Program Sites Database,MTA: http://www1.nyc.gov/site/planning/data-maps/open-data/dwn-selfac.page,MTA: 2015-03-01,mta_facilities_sfpsd,Core Infrastructure and Transportation
6423,0101000020E6100000986DA7AD117D52C02BDA1CE736694440,,22274,5401030.0,,137 St. Yard,137,St and Broadway,137 St and Broadway,New York,Manhattan,1.0,10031.0,40.821988,-73.954204,996924.9999,238752.9999,,1020860036,109.0,7,22301,MN06,0101000020110F0000C80C341598675FC15E43461242055341,Transportation,Rail Yards and Maintenance,NYCT Subway Yard,,,,,,,,Public,Metropolitan Transportation Authority,MTA,MTA: State,Metropolitan Transportation Authority,MTA,,MTA,MTA: Selected Facilities and Program Sites Database,MTA: http://www1.nyc.gov/site/planning/data-maps/open-data/dwn-selfac.page,MTA: 2015-03-01,mta_facilities_sfpsd,Core Infrastructure and Transportation
6911,0101000020E6100000C4263273817152C011018750A5544440,,115315,5302413001.0,,Jfk Depot,165-25,147 Avenue,165-25 147 Avenue,Jamaica,Queens,4.0,11434.0,40.661295,-73.773526,1047083.2790000001,180285.0885,4285305,4132960014,413.0,31,30600,QN03,0101000020110F000003464BD6F3535FC17902069933EE5241,Transportation,Bus Depots and Terminals,MTA Bus Depot,,,,,,,City Leased,Public,Metropolitan Transportation Authority,MTA,MTA: State,Metropolitan Transportation Authority,MTA,,MTA;NYCDCAS,MTA: Selected Facilities and Program Sites Database;NYCDCAS: City Owned and Leased Properties,MTA: http://www1.nyc.gov/site/planning/data-maps/open-data/dwn-selfac.page;NYCDCAS: http://www1.nyc.gov/site/planning/data-maps/open-data/dwn-colp.page,MTA: 2015-03-01;NYCDCAS: 2017-06-01,dcas_facilities_colp;mta_facilities_sfpsd,Core Infrastructure and Transportation
7615,0101000020E6100000EE940ED6FF8A52C0088ECBB8A9474440,,55268,,,Arthur Kill Park & Ride,,,W of Richmond Ave bet. Arthur Kill Rd & Drumgoole Rd E,Staten Island,Staten Island,5.0,10312.0,40.559867,-74.171865,936495.0,143297.9999,,,503.0,51,17012,SI01,0101000020110F0000261B8D8F417F5FC10773C253ADDF5241,Transportation,Parking Lots and Garages,Public Park and Ride Lot,,,,,,,,Public,NYS Department of Transportation,NYSDOT,NYSDOT: State,NYS Department of Transportation,NYSDOT,,NYSDOT,NYSDOT: Selected Facilities and Program Sites Database,NYSDOT: http://www1.nyc.gov/site/planning/data-maps/open-data/dwn-selfac.page,NYSDOT: 2015-03-01,nysdot_facilities_sfpsd,Core Infrastructure and Transportation
7766,0101000020E6100000153944DC9C8A52C0C4094CA775494440,,122545,5302502001.0,,Yukon Depot,1,Scheffelin Avenue,1 Scheffelin Avenue,Staten Island,Staten Island,5.0,10314.0,40.573903,-74.165824,938183.2394,148408.2938,,5023590400,502.0,51,27702,SI24,0101000020110F0000E0AEC370997E5FC18800258AAFE15241,Transportation,Bus Depots and Terminals,MTA Bus Depot,,,,,,,City Owned,Public,Metropolitan Transportation Authority,MTA,MTA: State,Metropolitan Transportation Authority,MTA,NYCDPR,MTA;NYCDCAS,MTA: Selected Facilities and Program Sites Database;NYCDCAS: City Owned and Leased Properties,MTA: http://www1.nyc.gov/site/planning/data-maps/open-data/dwn-selfac.page;NYCDCAS: http://www1.nyc.gov/site/planning/data-maps/open-data/dwn-colp.page,MTA: 2015-03-01;NYCDCAS: 2017-06-01,dcas_facilities_colp;mta_facilities_sfpsd,Core Infrastructure and Transportation
7784,0101000020E6100000FA97A432C57C52C03D61890794614440,,114690,,,Franklin D Roosevelt Four Freedoms Park,40,River Road,40 River Road,New York,Manhattan,1.0,10044.0,40.76233,-73.949536,998229.651,217018.0114,,1013730001,108.0,5,23801,MN31,0101000020110F00000166482C16675FC11FA92A16B1FC5241,Parks and Plazas,Parks,City-State Park,,,,,RIOC: 4.500,RIOC: Acres,City Owned,Public,Roosevelt Island Operating Corporation,RIOC,RIOC: State,Roosevelt Island Operating Corporation,RIOC,NYCDEP;NYCDOE;NYCFDNY,NYCDCAS;RIOC,NYCDCAS: City Owned and Leased Properties;RIOC: Selected Facilities and Program Sites Database,NYCDCAS: http://www1.nyc.gov/site/planning/data-maps/open-data/dwn-colp.page;RIOC: http://www1.nyc.gov/site/planning/data-maps/open-data/dwn-selfac.page,NYCDCAS: 2017-06-01;RIOC: 2015-03-01,dcas_facilities_colp;rioc_facilities_sfpsd,"Parks, Gardens, and Historical Sites"
7805,0101000020E6100000ED116A86547D52C0DAE38574785E4440,,115879,5402096.0,,NYCT Facility,65,Commercial Street,65 Commercial Street,Brooklyn,Brooklyn,3.0,11222.0,40.738051,-73.95828399999999,995810.4756,208171.4087,3336594,3024720425,301.0,33,56300,BK76,0101000020110F0000ADE1F2A009685FC187CEF92B35F95241,Transportation,Rail Yards and Maintenance,NYCT Subway Yard,,,,,,,City Owned,Public,Metropolitan Transportation Authority,MTA,MTA: State,Metropolitan Transportation Authority,MTA,MTA,MTA;NYCDCAS,MTA: Selected Facilities and Program Sites Database;NYCDCAS: City Owned and Leased Properties,MTA: http://www1.nyc.gov/site/planning/data-maps/open-data/dwn-selfac.page;NYCDCAS: http://www1.nyc.gov/site/planning/data-maps/open-data/dwn-colp.page,MTA: 2015-03-01;NYCDCAS: 2017-06-01,dcas_facilities_colp;mta_facilities_sfpsd,Core Infrastructure and Transportation
7836,0101000020E610000036221807977952C07FFB3A70CE564440,110499,110500,5401015.0,,East New York,1993,Broadway,1993 Broadway,Brooklyn,Brooklyn,3.0,11207.0,40.678175,-73.899843,1012030.603,186369.8609,3393286,3034760010,305.0,37,114201,BK83,0101000020110F00008F1C1E39AF615FC118E422F49EF05241,Transportation,Rail Yards and Maintenance,NYCT Subway Yard,,,,,,,City Owned,Public,Metropolitan Transportation Authority,MTA,MTA: State,Metropolitan Transportation Authority,MTA,MTA,MTA;NYCDCAS,MTA: Selected Facilities and Program Sites Database;NYCDCAS: City Owned and Leased Properties,MTA: http://www1.nyc.gov/site/planning/data-maps/open-data/dwn-selfac.page;NYCDCAS: http://www1.nyc.gov/site/planning/data-maps/open-data/dwn-colp.page,MTA: 2015-03-01;NYCDCAS: 2017-06-01,dcas_facilities_colp;mta_facilities_sfpsd,Core Infrastructure and Transportation
8204,0101000020E610000089230F44167652C053EBFD463B6A4440,,154961,5303209001.0,,Cbt Par Transit,2383,Blackrock Avenue,2383 Blackrock Avenue,Bronx,Bronx,2.0,10462.0,40.829934,-73.845109,1027114.447,241682.3635,2119181,2038270001,209.0,18,9600,BX59,0101000020110F000054F09CFBBB5B5FC1FB36334F66065341,Transportation,Bus Depots and Terminals,MTA Paratransit Vehicle Depot,,,,,,,,Non-public,Proprietary,Non-public,MTA: State,Metropolitan Transportation Authority,MTA,,MTA,MTA: Selected Facilities and Program Sites Database,MTA: http://www1.nyc.gov/site/planning/data-maps/open-data/dwn-selfac.page,MTA: 2015-03-01,mta_facilities_sfpsd,Core Infrastructure and Transportation
8258,0101000020E61000009207228B347252C09B9141EE22584440,,97736,5302412001.0,,Baisley Park Depot,114-15,Guy R Brewer Boulevard,114-15 Guy R Brewer Boulevard,Jamaica,Queens,4.0,11434.0,40.688565999999994,-73.78445699999999,1044026.215,190213.1412,4267048,4123270008,412.0,27,27600,QN76,0101000020110F000072F1A00B24555FC1640E8C4B1CF25241,Transportation,Bus Depots and Terminals,MTA Bus Depot,,,,,,,City Leased,Public,Metropolitan Transportation Authority,MTA,MTA: State,Metropolitan Transportation Authority,MTA,,MTA;NYCDCAS,MTA: Selected Facilities and Program Sites Database;NYCDCAS: City Owned and Leased Properties,MTA: http://www1.nyc.gov/site/planning/data-maps/open-data/dwn-selfac.page;NYCDCAS: http://www1.nyc.gov/site/planning/data-maps/open-data/dwn-colp.page,MTA: 2015-03-01;NYCDCAS: 2017-06-01,dcas_facilities_colp;mta_facilities_sfpsd,Core Infrastructure and Transportation
8429,0101000020E610000034BE2F2E557B52C085ECBC8DCD4E4440,,60198,5302318001.0,,Flatbush Depot,4901,Fillmore Avenue,4901 Fillmore Avenue,Brooklyn,Brooklyn,3.0,11234.0,40.615648,-73.927074,1004496.5970000001,163581.9411,3239527,3084890001,318.0,46,67200,BK58,0101000020110F0000D6EFF10EA5645FC1BCD02584A9E75241,Transportation,Bus Depots and Terminals,MTA Bus Depot,,,,,,,City Owned,Public,Metropolitan Transportation Authority,MTA,MTA: State,Metropolitan Transportation Authority,MTA,MTA,MTA;NYCDCAS,MTA: Selected Facilities and Program Sites Database;NYCDCAS: City Owned and Leased Properties,MTA: http://www1.nyc.gov/site/planning/data-maps/open-data/dwn-selfac.page;NYCDCAS: http://www1.nyc.gov/site/planning/data-maps/open-data/dwn-colp.page,MTA: 2015-03-01;NYCDCAS: 2017-06-01,dcas_facilities_colp;mta_facilities_sfpsd,Core Infrastructure and Transportation
8477,0101000020E6100000C30FCEA78E7952C0056D72F8A4534440,,119145,5303318003.0,,Transcare NY,10615,Foster Avenue,10615 Foster Avenue,Brooklyn,Brooklyn,3.0,11236.0,40.653472,-73.899332,1012182.85,177370.0572,3228747,3081380250,318.0,42,109800,BK82,0101000020110F000028668600A1615FC17C029A9C14ED5241,Transportation,Bus Depots and Terminals,MTA Paratransit Vehicle Depot,,,,,,,,Non-public,Proprietary,Non-public,MTA: State,Metropolitan Transportation Authority,MTA,,MTA,MTA: Selected Facilities and Program Sites Database,MTA: http://www1.nyc.gov/site/planning/data-maps/open-data/dwn-selfac.page,MTA: 2015-03-01,mta_facilities_sfpsd,Core Infrastructure and Transportation
8745,0101000020E610000091BA9D7DE57152C091BA9D7DE54B4440,,118044,5302414001.0,,Far Rockaway Depot,49-19,Rockaway Beach Boulevard,49-19 Rockaway Beach Boulevard,Far Rockaway,Queens,4.0,11691.0,40.592940999999996,-73.77963199999999,1045451.993,155377.7055,4301915,4158550001,414.0,31,97204,QN12,0101000020110F00005A802BC49D545FC103118D2C69E45241,Transportation,Bus Depots and Terminals,MTA Bus Depot,,,,,,,City Leased,Public,Metropolitan Transportation Authority,MTA,MTA: State,Metropolitan Transportation Authority,MTA,,MTA;NYCDCAS,MTA: Selected Facilities and Program Sites Database;NYCDCAS: City Owned and Leased Properties,MTA: http://www1.nyc.gov/site/planning/data-maps/open-data/dwn-selfac.page;NYCDCAS: http://www1.nyc.gov/site/planning/data-maps/open-data/dwn-colp.page,MTA: 2015-03-01;NYCDCAS: 2017-06-01,dcas_facilities_colp;mta_facilities_sfpsd,Core Infrastructure and Transportation
9285,0101000020E610000034F44F70B17352C09C69C2F693594440,,83932,5405005.0,,Jamaica D Yard,146,St,146 St,Jamaica,Queens,4.0,11435.0,40.699828000000004,-73.807705,1037569.8940000001,194301.0885,4798071,4099890095,412.0,27,20800,QN61,0101000020110F00000837C808AB575FC1F0FC30ABB9F35241,Transportation,Rail Yards and Maintenance,LIRR Yard,,,,,,,,Public,Metropolitan Transportation Authority,MTA,MTA: State,Metropolitan Transportation Authority,MTA,,MTA,MTA: Selected Facilities and Program Sites Database,MTA: http://www1.nyc.gov/site/planning/data-maps/open-data/dwn-selfac.page,MTA: 2015-03-01,mta_facilities_sfpsd,Core Infrastructure and Transportation
9395,0101000020E61000005AD427B9C37E52C028D53E1D8F614440,77695,77696,5402059.0,,126 W. 53 St,126,West   53 Street,126 West   53 Street,New York,Manhattan,1.0,10019.0,40.76218,-73.980696,989597.7521,216959.9575,1023162,1010050049,105.0,4,13100,MN17,0101000020110F0000916A105A796A5FC154F53E93ABFC5241,Transportation,Rail Yards and Maintenance,NYCT Maintenance and Other Facility,,,,,,,City Owned,Public,Metropolitan Transportation Authority,MTA,MTA: State,Metropolitan Transportation Authority,MTA,MTA,MTA;NYCDCAS,MTA: Selected Facilities and Program Sites Database;NYCDCAS: City Owned and Leased Properties,MTA: http://www1.nyc.gov/site/planning/data-maps/open-data/dwn-selfac.page;NYCDCAS: http://www1.nyc.gov/site/planning/data-maps/open-data/dwn-colp.page,MTA: 2015-03-01;NYCDCAS: 2017-06-01,dcas_facilities_colp;mta_facilities_sfpsd,Core Infrastructure and Transportation
9761,0101000020E6100000FF93BF7B477F52C041D7BE805E584440,;82649,82643,5402094.0,;,NYCT Facility,130,Livingston Street,130 Livingston Street,Brooklyn,Brooklyn,3.0,11201.0,40.690384,-73.988738,987373.0578,190801.9951,3319419,3001630001,302.0,33,3700,BK38,0101000020110F0000A9C5DE28596B5FC19B3337055FF25241,Transportation,Rail Yards and Maintenance,NYCT Subway Yard,,,,,,,City Owned,Public,Metropolitan Transportation Authority,MTA,MTA: State,Metropolitan Transportation Authority,MTA,NYCDCAS;NYCEDC,MTA;NYCDCAS,MTA: Selected Facilities and Program Sites Database;NYCDCAS: City Owned and Leased Properties,MTA: http://www1.nyc.gov/site/planning/data-maps/open-data/dwn-selfac.page;NYCDCAS: http://www1.nyc.gov/site/planning/data-maps/open-data/dwn-colp.page,MTA: 2015-03-01;NYCDCAS: 2017-06-01,dcas_facilities_colp;mta_facilities_sfpsd,Core Infrastructure and Transportation
9881,0101000020E610000001309E41437352C0C26C020CCB4B4440,,97674,5303414001.0,,All Transit,72-11,Amstel Boulevard,72-11 Amstel Boulevard,Arverne,Queens,4.0,11692.0,40.592134,-73.80098000000001,1039523.777,155069.7143,4303247,4160770001,414.0,31,95400,QN12,0101000020110F0000768DDFE0EF565FC16AFC18994BE45241,Transportation,Bus Depots and Terminals,MTA Paratransit Vehicle Depot,,,,,,,,Non-public,Proprietary,Non-public,MTA: State,Metropolitan Transportation Authority,MTA,,MTA,MTA: Selected Facilities and Program Sites Database,MTA: http://www1.nyc.gov/site/planning/data-maps/open-data/dwn-selfac.page,MTA: 2015-03-01,mta_facilities_sfpsd,Core Infrastructure and Transportation
10113,0101000020E6100000E78F696D1A8052C0B0E8D66B7A604440,47336;199826,181501,5405012.0,,West Side Yard,530,West 33 Street,530 West 33 Street,New York,Manhattan,1.0,10001.0,40.753735999999996,-74.001613,983802.9999,213883.0001,,1006760005;1007020010;1007020175,104.0,3,9900,MN13,0101000020110F000022702178BF6C5FC15436F35675FB5241,Transportation,Rail Yards and Maintenance,LIRR Yard,,,,,,,,Public,Metropolitan Transportation Authority,MTA,MTA: State,Metropolitan Transportation Authority,MTA,,MTA,MTA: Selected Facilities and Program Sites Database,MTA: http://www1.nyc.gov/site/planning/data-maps/open-data/dwn-selfac.page,MTA: 2015-03-01,mta_facilities_sfpsd,Core Infrastructure and Transportation
10489,0101000020E6100000A54FABE80F7A52C0C44142942F604440,,116205,5402091.0,,NYCT Facility,33-61,54 Street,33-61 54 Street,Woodside,Queens,4.0,11377.0,40.751452,-73.90722099999999,1009956.11,213064.4621,4027266,4011930111,402.0,26,25500,QN63,0101000020110F000011664A8D7C625FC143DD736E21FB5241,Transportation,Rail Yards and Maintenance,NYCT Subway Yard,,,,,,,,Public,Metropolitan Transportation Authority,MTA,MTA: State,Metropolitan Transportation Authority,MTA,,MTA,MTA: Selected Facilities and Program Sites Database,MTA: http://www1.nyc.gov/site/planning/data-maps/open-data/dwn-selfac.page,MTA: 2015-03-01,mta_facilities_sfpsd,Core Infrastructure and Transportation
10718,0101000020E610000048C49448A27A52C00A4AD1CABD5C4440,132729,132521,5405020.0,,Maspeth Yard,57,Dr,57 Dr,Maspeth,Queens,4.0,11378.0,40.724542,-73.916155,1007490.0,203258.0,4058992,4025750052;4026100119,402.0,30,21900,QN31,0101000020110F0000D5911A2F75635FC10F49980B45F75241,Transportation,Rail Yards and Maintenance,LIRR Yard,,,,,,,,Public,Metropolitan Transportation Authority,MTA,MTA: State,Metropolitan Transportation Authority,MTA,,MTA,MTA: Selected Facilities and Program Sites Database,MTA: http://www1.nyc.gov/site/planning/data-maps/open-data/dwn-selfac.page,MTA: 2015-03-01,mta_facilities_sfpsd,Core Infrastructure and Transportation
10921,0101000020E6100000757286E28E7B52C011381268B05F4440,,116180,5408002.0,,Sunnyside Yard,,,Skillman Avenue,Long Island City,Queens,4.0,11101.0,40.747571,-73.930596,1003480.6290000001,211644.36899999998,4551444,4002390001,402.0,26,17100,QN31,0101000020110F000068B43F1307655FC181403ADC92FA5241,Transportation,Rail Yards and Maintenance,Amtrak Maintenance and Other Facility,,,,,,,,Public,Amtrak,Amtrak,Amtrak: Federal,Amtrak,Amtrak,,Amtrak,Amtrak: Selected Facilities and Program Sites Database,Amtrak: http://www1.nyc.gov/site/planning/data-maps/open-data/dwn-selfac.page,Amtrak: 2015-03-01,amtrak_facilities_sfpsd,Core Infrastructure and Transportation
10935,0101000020E6100000FA97A432C57C52C03D61890794614440,,114689,,,Southwest Promenade,40,River Road,40 River Road,New York,Manhattan,1.0,10044.0,40.76233,-73.949536,998229.651,217018.0114,,1013730001,108.0,5,23801,MN31,0101000020110F00000166482C16675FC11FA92A16B1FC5241,Parks and Plazas,Parks,City-State Park,,,,,,,City Owned,Public,Roosevelt Island Operating Corporation,RIOC,RIOC: State,Roosevelt Island Operating Corporation,RIOC,NYCDEP;NYCDOE;NYCFDNY,NYCDCAS;RIOC,NYCDCAS: City Owned and Leased Properties;RIOC: Selected Facilities and Program Sites Database,NYCDCAS: http://www1.nyc.gov/site/planning/data-maps/open-data/dwn-colp.page;RIOC: http://www1.nyc.gov/site/planning/data-maps/open-data/dwn-selfac.page,NYCDCAS: 2017-06-01;RIOC: 2015-03-01,dcas_facilities_colp;rioc_facilities_sfpsd,"Parks, Gardens, and Historical Sites"
11096,0101000020E61000003FFD67CD8F8452C08109DCBA9B4F4440,,74463,5402077.0,,Clifton,845,Bay Street,845 Bay Street,Staten Is,Staten Is,,10304.0,40.62194,-74.071277,964463.2226,165873.9329,5154144,5028200001,501.0,49,600,SI37,0101000020110F00000C92A23552745FC11C72493490E85241,Transportation,Rail Yards and Maintenance,NYCT Maintenance and Other Facility,,,,,,,,Public,Metropolitan Transportation Authority,MTA,MTA: State,Metropolitan Transportation Authority,MTA,,MTA,MTA: Selected Facilities and Program Sites Database,MTA: http://www1.nyc.gov/site/planning/data-maps/open-data/dwn-selfac.page,MTA: 2015-03-01,mta_facilities_sfpsd,Core Infrastructure and Transportation
11120,0101000020E610000012C2A38D238052C07EC51A2E72534440,,55371,5402071.0,,38th St.,38,St & 5 Ave,38 St & 5 Ave,Brooklyn,Brooklyn,3.0,11232.0,40.651922,-74.00216999999999,983647.9999,176789.0001,,3009030180,307.0,38,8800,BK34,0101000020110F0000AAA472F8CE6C5FC1E59F0DC1DBEC5241,Transportation,Rail Yards and Maintenance,NYCT Maintenance and Other Facility,,,,,,,,Public,Metropolitan Transportation Authority,MTA,MTA: State,Metropolitan Transportation Authority,MTA,,MTA,MTA: Selected Facilities and Program Sites Database,MTA: http://www1.nyc.gov/site/planning/data-maps/open-data/dwn-selfac.page,MTA: 2015-03-01,mta_facilities_sfpsd,Core Infrastructure and Transportation
11146,0101000020E61000004E29AF95D07352C01570CFF3A7594440,83068,83089,5402089.0,,NYCT Facility,91-15,144 Place,91-15 144 Place,Jamaica,Queens,4.0,11435.0,40.700438,-73.809606,1037042.212,194522.3669,4213883,4099860020,412.0,24,21200,QN61,0101000020110F00004B4B5BF0DF575FC13DCC940FD0F35241,Transportation,Rail Yards and Maintenance,NYCT Subway Yard,,,,,,,City Owned,Public,Metropolitan Transportation Authority,MTA,MTA: State,Metropolitan Transportation Authority,MTA,MTA,MTA;NYCDCAS,MTA: Selected Facilities and Program Sites Database;NYCDCAS: City Owned and Leased Properties,MTA: http://www1.nyc.gov/site/planning/data-maps/open-data/dwn-selfac.page;NYCDCAS: http://www1.nyc.gov/site/planning/data-maps/open-data/dwn-colp.page,MTA: 2015-03-01;NYCDCAS: 2017-06-01,dcas_facilities_colp;mta_facilities_sfpsd,Core Infrastructure and Transportation
11149,0101000020E61000001346B3B27D8B52C0DCB75A272E454440,,117634,5306002.0,,Annadale,,,Albee Avenue,Staten Island,Staten Island,5.0,10312.0,40.540471000000004,-74.179547,934346.0001,136235.9999,,5062540150,503.0,51,17005,SI01,0101000020110F000075638E5917805FC18B7B5BEDE6DC5241,Transportation,Parking Lots and Garages,Public Park and Ride Lot,,,,,,,,Public,Metropolitan Transportation Authority,MTA,MTA: State,Metropolitan Transportation Authority,MTA,,MTA,MTA: Selected Facilities and Program Sites Database,MTA: http://www1.nyc.gov/site/planning/data-maps/open-data/dwn-selfac.page,MTA: 2015-03-01,mta_facilities_sfpsd,Core Infrastructure and Transportation
11370,0101000020E6100000AA2A3410CB8452C0DE59BBED42514440,,54889,5402048.0,,Tompkinsville,293,Bay Street,293 Bay Street,Staten Is,Staten Is,,10301.0,40.634855,-74.074894,963462.9999,170580.0001,,,501.0,49,2100,SI37,0101000020110F00003FE6C2DEB6745FC1A45CBBC869EA5241,Transportation,Rail Yards and Maintenance,NYCT Maintenance and Other Facility,,,,,,,,Public,Metropolitan Transportation Authority,MTA,MTA: State,Metropolitan Transportation Authority,MTA,,MTA,MTA: Selected Facilities and Program Sites Database,MTA: http://www1.nyc.gov/site/planning/data-maps/open-data/dwn-selfac.page,MTA: 2015-03-01,mta_facilities_sfpsd,Core Infrastructure and Transportation
12077,0101000020E610000080D8D2A3A98452C047020D3675524440,,110589,5401029.0,,St. George,1,Richmond Terrace,1 Richmond Terrace,Staten Island,Staten Island,5.0,10301.0,40.644202,-74.072854,964032.0001,173984.9998,,5000020001,501.0,49,300,SI22,0101000020110F0000CF7BE3187E745FC1191E1196C0EB5241,Transportation,Rail Yards and Maintenance,NYCT Subway Yard,,,,,,,City Owned,Public,Metropolitan Transportation Authority,MTA,MTA: State,Metropolitan Transportation Authority,MTA,NYCDOT,MTA;NYCDCAS,MTA: Selected Facilities and Program Sites Database;NYCDCAS: City Owned and Leased Properties,MTA: http://www1.nyc.gov/site/planning/data-maps/open-data/dwn-selfac.page;NYCDCAS: http://www1.nyc.gov/site/planning/data-maps/open-data/dwn-colp.page,MTA: 2015-03-01;NYCDCAS: 2017-06-01,dcas_facilities_colp;mta_facilities_sfpsd,Core Infrastructure and Transportation
12078,0101000020E6100000E7C75F5AD47552C051A4FB3905634440,,105523,5302407001.0,,College Point Depot,124-15,28 Avenue,124-15 28 Avenue,Flushing,Queens,4.0,11354.0,40.773596999999995,-73.841086,1028265.0,221159.0,,,407.0,19,90700,QN23,0101000020110F0000370BF6054C5B5FC14E6B3A1A4FFE5241,Transportation,Bus Depots and Terminals,MTA Bus Depot,,,,,,,,Public,Metropolitan Transportation Authority,MTA,MTA: State,Metropolitan Transportation Authority,MTA,,MTA,MTA: Selected Facilities and Program Sites Database,MTA: http://www1.nyc.gov/site/planning/data-maps/open-data/dwn-selfac.page,MTA: 2015-03-01,mta_facilities_sfpsd,Core Infrastructure and Transportation
12165,0101000020E6100000A0C552245F7752C0A69BC420B0544440,,123405,5302305002.0,,Spring Creek Depot,12755,Flatlands Avenue,12755 Flatlands Avenue,Brooklyn,Brooklyn,3.0,11208.0,40.661625,-73.86518199999999,1021654.017,180352.848,3405282,3045660005,305.0,42,122000,BK82,0101000020110F0000EB5AA59CEA5D5FC1D38F5AB43FEE5241,Transportation,Bus Depots and Terminals,MTA Bus Depot,,,,,,,City Owned,Public,Metropolitan Transportation Authority,MTA,MTA: State,Metropolitan Transportation Authority,MTA,NYCDOT,MTA;NYCDCAS,MTA: Selected Facilities and Program Sites Database;NYCDCAS: City Owned and Leased Properties,MTA: http://www1.nyc.gov/site/planning/data-maps/open-data/dwn-selfac.page;NYCDCAS: http://www1.nyc.gov/site/planning/data-maps/open-data/dwn-colp.page,MTA: 2015-03-01;NYCDCAS: 2017-06-01,dcas_facilities_colp;mta_facilities_sfpsd,Core Infrastructure and Transportation
12817,0101000020E61000001BB96E4A797452C0D3A57F492A594440,,90148,5406006.0,,Sheridon Shop,,,Atlantic Avenue,Richmond Hill,Queens,4.0,11418.0,40.696603,-73.819903,1034189.957,193119.1271,4602536,4093750058,409.0,29,14202,QN54,0101000020110F0000B5A6CA80FE585FC14983934943F35241,Transportation,Rail Yards and Maintenance,LIRR Maintenance and Other Facility,,,,,,,,Public,Metropolitan Transportation Authority,MTA,MTA: State,Metropolitan Transportation Authority,MTA,,MTA,MTA: Selected Facilities and Program Sites Database,MTA: http://www1.nyc.gov/site/planning/data-maps/open-data/dwn-selfac.page,MTA: 2015-03-01,mta_facilities_sfpsd,Core Infrastructure and Transportation
13454,0101000020E610000043E6CAA0DA7552C00E4A9869FB6B4440,107323;107330;107289;107329;161868;107296;107303;107294;187189;107332;107327;41767;107331;180389,107283,5401006.0,,Westchester,1650,Eastchester Rd at Blondell Ave,1650 Eastchester Rd at Blondell Ave,Bronx,Bronx,2.0,10461.0,40.84361,-73.84146899999999,1028113.0,246667.0002,,2041330023;2041340014;2041370001;2041380001;2041390014;2041400011;2041410011;2041420014;2041420101;2041420112;2041420118;2041430001;2041440001;2041450001;2041460001,211.0,13,28400,BX37,0101000020110F000011DD9FAE565B5FC15226095E5D085341,Transportation,Rail Yards and Maintenance,NYCT Subway Yard,,,,,,,City Owned,Public,Metropolitan Transportation Authority,MTA,MTA: State,Metropolitan Transportation Authority,MTA,MTA,MTA;NYCDCAS,MTA: Selected Facilities and Program Sites Database;NYCDCAS: City Owned and Leased Properties,MTA: http://www1.nyc.gov/site/planning/data-maps/open-data/dwn-selfac.page;NYCDCAS: http://www1.nyc.gov/site/planning/data-maps/open-data/dwn-colp.page,MTA: 2015-03-01;NYCDCAS: 2017-06-01,dcas_facilities_colp;mta_facilities_sfpsd,Core Infrastructure and Transportation
13626,0101000020E610000068E89FE0627352C0EFACDD76A1594440,,84199,5303412001.0,,Professional Transit,94-01,150 Street,94-01 150 Street,Jamaica,Queens,4.0,11435.0,40.70024,-73.80291,1038899.052,194454.1452,4215605,4100950043,412.0,27,20800,QN61,0101000020110F00007F870E9725575FC1E8EAE5CAC8F35241,Transportation,Bus Depots and Terminals,MTA Paratransit Vehicle Depot,,,,,,,,Non-public,Proprietary,Non-public,MTA: State,Metropolitan Transportation Authority,MTA,,MTA,MTA: Selected Facilities and Program Sites Database,MTA: http://www1.nyc.gov/site/planning/data-maps/open-data/dwn-selfac.page,MTA: 2015-03-01,mta_facilities_sfpsd,Core Infrastructure and Transportation
13951,0101000020E61000006BB8C83D5D7D52C08F386403E95C4440,,169211,5402076.0,,Station Wash Van Facility,40,Quay Street,40 Quay Street,Brooklyn,Brooklyn,3.0,11222.0,40.725861,-73.958816,995665.0001,203730.0001,,,301.0,33,56100,BK76,0101000020110F0000919F276F18685FC1A387617B75F75241,Transportation,Rail Yards and Maintenance,NYCT Maintenance and Other Facility,,,,,,,,Public,Metropolitan Transportation Authority,MTA,MTA: State,Metropolitan Transportation Authority,MTA,,MTA,MTA: Selected Facilities and Program Sites Database,MTA: http://www1.nyc.gov/site/planning/data-maps/open-data/dwn-selfac.page,MTA: 2015-03-01,mta_facilities_sfpsd,Core Infrastructure and Transportation
14224,0101000020E610000051DB8651108052C0C0B167CF65604440,,47140,5406007.0,,West Side Shop,500,West 33 Street,500 West 33 Street,New York,Manhattan,1.0,10001.0,40.753107,-74.000996,983973.9999,213653.9999,,1007027501,104.0,3,9900,MN13,0101000020110F000077B8584CAE6C5FC1057C463B5EFB5241,Transportation,Rail Yards and Maintenance,LIRR Maintenance and Other Facility,,,,,,,,Public,Metropolitan Transportation Authority,MTA,MTA: State,Metropolitan Transportation Authority,MTA,,MTA,MTA: Selected Facilities and Program Sites Database,MTA: http://www1.nyc.gov/site/planning/data-maps/open-data/dwn-selfac.page,MTA: 2015-03-01,mta_facilities_sfpsd,Core Infrastructure and Transportation
14379,0101000020E610000078EE3D5C727952C016A6EF35045B4440,,1315,5303405001.0,,Careride Para,63-15,Traffic Avenue,63-15 Traffic Avenue,Ridgewood,Queens,4.0,11385.0,40.711065999999995,-73.897605,1012637.5329999999,198353.73899999997,4087481,4036080290,405.0,30,61301,QN20,0101000020110F000094B49AF070615FC15496273B56F55241,Transportation,Bus Depots and Terminals,MTA Paratransit Vehicle Depot,,,,,,,,Non-public,Proprietary,Non-public,MTA: State,Metropolitan Transportation Authority,MTA,,MTA,MTA: Selected Facilities and Program Sites Database,MTA: http://www1.nyc.gov/site/planning/data-maps/open-data/dwn-selfac.page,MTA: 2015-03-01,mta_facilities_sfpsd,Core Infrastructure and Transportation
14409,0101000020E610000061E124CD1F7652C07D09151C5E604440,122089;122088;122087,122070,5401011.0,,Corona,126-53,Willets Point Boulevard,126-53 Willets Point Boulevard,Corona,Queens,4.0,11368.0,40.752871999999996,-73.845691,1027003.0,213606.0,,,481.0,21,38302,QN99,0101000020110F0000809B0A2ECC5B5FC13115249955FB5241,Transportation,Rail Yards and Maintenance,NYCT Subway Yard,,,,,,,,Public,Metropolitan Transportation Authority,MTA,MTA: State,Metropolitan Transportation Authority,MTA,,MTA,MTA: Selected Facilities and Program Sites Database,MTA: http://www1.nyc.gov/site/planning/data-maps/open-data/dwn-selfac.page,MTA: 2015-03-01,mta_facilities_sfpsd,Core Infrastructure and Transportation
14432,0101000020E61000005F07CE19517552C065A54929E86E4440,,8493,5302212001.0,,Gun Hill Depot,1910,Bartow Avenue,1910 Bartow Avenue,Bronx,Bronx,2.0,10469.0,40.86646,-73.833075,1030419.474,254996.4618,2098101,2048040100,212.0,12,35600,BX03,0101000020110F0000794D03146D5A5FC1503C041DA60B5341,Transportation,Bus Depots and Terminals,MTA Bus Depot,,,,,,,City Owned,Public,Metropolitan Transportation Authority,MTA,MTA: State,Metropolitan Transportation Authority,MTA,MTA,MTA;NYCDCAS,MTA: Selected Facilities and Program Sites Database;NYCDCAS: City Owned and Leased Properties,MTA: http://www1.nyc.gov/site/planning/data-maps/open-data/dwn-selfac.page;NYCDCAS: http://www1.nyc.gov/site/planning/data-maps/open-data/dwn-colp.page,MTA: 2015-03-01;NYCDCAS: 2017-06-01,dcas_facilities_colp;mta_facilities_sfpsd,Core Infrastructure and Transportation
14894,0101000020E6100000F4A96395D27852C0412E71E4815A4440,97069;40246;97065;97080,101610,5405018.0,,Fresh Pond Yard,65,Pl,65 Pl,Ridgewood,Queens,4.0,11385.0,40.707089,-73.887853,1015343.0,196907.9999,4551724;4551838,4036080025;4036670309;4036670571;4036670722;4036670775,405.0,30,61301,QN20,0101000020110F00004440FE8A61605FC1ED21D538C4F45241,Transportation,Rail Yards and Maintenance,LIRR Yard,,,,,,,,Public,Metropolitan Transportation Authority,MTA,MTA: State,Metropolitan Transportation Authority,MTA,,MTA,MTA: Selected Facilities and Program Sites Database,MTA: http://www1.nyc.gov/site/planning/data-maps/open-data/dwn-selfac.page,MTA: 2015-03-01,mta_facilities_sfpsd,Core Infrastructure and Transportation
14929,0101000020E61000008527F4FA937952C0A05225CADE524440,72297;72296;72294;70696;4414;72299;169026;167966,156767,5401017.0,,Canarsie,,,East 100 Street,Brooklyn,Brooklyn,3.0,11236.0,40.647424,-73.89965699999999,1012095.168,175166.4807,3229443;3407057;3407058;3407080,3081660012;3081660060;3081670011;3081680011;3081680046;3081680065;3081690013;3081700001;3081708900,318.0,42,97400,BK50,0101000020110F0000736CF80BAA615FC16A7EB4C336EC5241,Transportation,Rail Yards and Maintenance,NYCT Subway Yard,,,,,,,,Public,Metropolitan Transportation Authority,MTA,MTA: State,Metropolitan Transportation Authority,MTA,,MTA,MTA: Selected Facilities and Program Sites Database,MTA: http://www1.nyc.gov/site/planning/data-maps/open-data/dwn-selfac.page,MTA: 2015-03-01,mta_facilities_sfpsd,Core Infrastructure and Transportation
15359,0101000020E6100000E28FA2CEDC7552C07024D06053694440,,112906,5302209001.0,,Zerega Cmf,750,Zerega Avenue,750 Zerega Avenue,Bronx,Bronx,2.0,10473.0,40.822857,-73.84160200000001,1028089.7729999999,239105.6552,2022542,2036190001,209.0,18,9000,BX09,0101000020110F0000890C2D625A5B5FC170769E0762055341,Transportation,Bus Depots and Terminals,MTA Bus Depot,,,,,,,,Public,Metropolitan Transportation Authority,MTA,MTA: State,Metropolitan Transportation Authority,MTA,,MTA,MTA: Selected Facilities and Program Sites Database,MTA: http://www1.nyc.gov/site/planning/data-maps/open-data/dwn-selfac.page,MTA: 2015-03-01,mta_facilities_sfpsd,Core Infrastructure and Transportation
15670,0101000020E6100000761A69A9BC7F52C081EA1F4432604440,,94612,5405016.0,,C Yard,372,9 Avenue,372 9 Avenue,New York,Manhattan,1.0,10001.0,40.751534,-73.99589,985388.8413,213080.8837,1084820,1007550040,104.0,3,10300,MN13,0101000020110F0000A407EB32206C5FC16F8DA17124FB5241,Transportation,Rail Yards and Maintenance,LIRR Yard,,,,,,,,Public,Metropolitan Transportation Authority,MTA,MTA: State,Metropolitan Transportation Authority,MTA,,MTA,MTA: Selected Facilities and Program Sites Database,MTA: http://www1.nyc.gov/site/planning/data-maps/open-data/dwn-selfac.page,MTA: 2015-03-01,mta_facilities_sfpsd,Core Infrastructure and Transportation
15762,0101000020E6100000BBEF181EFB7B52C0EE073C3080564440,,96936,5402061.0,,Bergen St.,1415,Bergen Street,1415 Bergen Street,Brooklyn,Brooklyn,3.0,11213.0,40.675787,-73.937202,1001668.939,185489.9999,3035760,3013460010,308.0,36,31100,BK61,0101000020110F0000813359EBBE655FC189DC085347F05241,Transportation,Rail Yards and Maintenance,NYCT Maintenance and Other Facility,,,,,,,,Public,Metropolitan Transportation Authority,MTA,MTA: State,Metropolitan Transportation Authority,MTA,,MTA,MTA: Selected Facilities and Program Sites Database,MTA: http://www1.nyc.gov/site/planning/data-maps/open-data/dwn-selfac.page,MTA: 2015-03-01,mta_facilities_sfpsd,Core Infrastructure and Transportation
15816,0101000020E61000001BB96E4A797452C0D3A57F492A594440,,90153,5406005.0,,Morris Park Shop,,,Atlantic Avenue,Richmond Hill,Queens,4.0,11418.0,40.696603,-73.819903,1034189.957,193119.1271,4602536,4093750058,409.0,29,14202,QN54,0101000020110F0000B5A6CA80FE585FC14983934943F35241,Transportation,Rail Yards and Maintenance,LIRR Maintenance and Other Facility,,,,,,,,Public,Metropolitan Transportation Authority,MTA,MTA: State,Metropolitan Transportation Authority,MTA,,MTA,MTA: Selected Facilities and Program Sites Database,MTA: http://www1.nyc.gov/site/planning/data-maps/open-data/dwn-selfac.page,MTA: 2015-03-01,mta_facilities_sfpsd,Core Infrastructure and Transportation
16102,0101000020E6100000D5EDEC2B0F7C52C00ADCBA9BA76C4440,,120358,,,George Washington Bridge Bus Station,4201,Broadway,4201 Broadway,New York,Manhattan,1.0,10033.0,40.848865,-73.938426,1001285.197,248547.9171,1064259,1021760017,112.0,10,26500,MN36,0101000020110F0000F90CACFBE0655FC14B16E1B11E095341,Transportation,Bus Depots and Terminals,PANYNJ Bus Terminal,,,,,,,,Public,Port Authority of New York and New Jersey,PANYNJ,PANYNJ: State,Port Authority of New York and New Jersey,PANYNJ,,PANYNJ,PANYNJ: Selected Facilities and Program Sites Database,PANYNJ: http://www1.nyc.gov/site/planning/data-maps/open-data/dwn-selfac.page,PANYNJ: 2015-03-01,panynj_facilities_sfpsd,Core Infrastructure and Transportation
16506,0101000020E6100000A7583508737A52C0EFE714E4676F4440,,123827,5302112001.0,,Kingsbridge Depot,4065,10 Avenue,4065 10 Avenue,New York,Manhattan,1.0,10034.0,40.870358,-73.913271,1008236.969,256384.6326,1076766,1022130006,112.0,10,29900,MN01,0101000020110F0000688C32EC24635FC1649BDB90350C5341,Transportation,Bus Depots and Terminals,MTA Bus Depot,,,,,,,City Owned,Public,Metropolitan Transportation Authority,MTA,MTA: State,Metropolitan Transportation Authority,MTA,MTA,MTA;NYCDCAS,MTA: Selected Facilities and Program Sites Database;NYCDCAS: City Owned and Leased Properties,MTA: http://www1.nyc.gov/site/planning/data-maps/open-data/dwn-selfac.page;NYCDCAS: http://www1.nyc.gov/site/planning/data-maps/open-data/dwn-colp.page,MTA: 2015-03-01;NYCDCAS: 2017-06-01,dcas_facilities_colp;mta_facilities_sfpsd,Core Infrastructure and Transportation
16528,0101000020E6100000AA2A3410CB8452C0DE59BBED42514440,,163434,5401027.0,,Tompkinsville,,,Victory Boulevard,Staten Island,Staten Island,5.0,10301.0,40.634855,-74.074894,963462.9999,170580.0001,,5004870112,501.0,49,2100,SI37,0101000020110F00003FE6C2DEB6745FC1A45CBBC869EA5241,Transportation,Rail Yards and Maintenance,NYCT Subway Yard,,,,,,,,Public,Metropolitan Transportation Authority,MTA,MTA: State,Metropolitan Transportation Authority,MTA,,MTA,MTA: Selected Facilities and Program Sites Database,MTA: http://www1.nyc.gov/site/planning/data-maps/open-data/dwn-selfac.page,MTA: 2015-03-01,mta_facilities_sfpsd,Core Infrastructure and Transportation
16865,0101000020E6100000C34483143C8152C089B14CBF44584440,,116547,,,Liggett Terrace,1,Governors Island,1 Governors Island,New York,Manhattan,1.0,10004.0,40.689598,-74.01929200000001,978899.9999,190515.9999,,1000010010,101.0,1,500,MN99,0101000020110F000031843C79AB6E5FC146BE032C42F25241,Parks and Plazas,Parks,City-State Park,,,,,TGI: 6.000,TGI: Acres,,Public,Trust for Governors Island,TGI,TGI: City-State,Trust for Governors Island,TGI,,TGI,TGI: Selected Facilities and Program Sites Database,TGI: http://www1.nyc.gov/site/planning/data-maps/open-data/dwn-selfac.page,TGI: 2015-03-01,tgi_facilities_sfpsd,"Parks, Gardens, and Historical Sites"
17109,0101000020E610000013D21A834E6F52C0BB0D6ABFB55B4440,,76542,5405021.0,,Queens Team Yard,98,Ave,98 Ave,Queens Village,Queens,4.0,11429.0,40.716484,-73.73916700000001,1056556.129,200418.5215,4603614,4107590001,413.0,27,56800,QN34,0101000020110F000098CB67A137505FC12B077C281DF65241,Transportation,Rail Yards and Maintenance,LIRR Yard,,,,,,,,Public,Metropolitan Transportation Authority,MTA,MTA: State,Metropolitan Transportation Authority,MTA,,MTA,MTA: Selected Facilities and Program Sites Database,MTA: http://www1.nyc.gov/site/planning/data-maps/open-data/dwn-selfac.page,MTA: 2015-03-01,mta_facilities_sfpsd,Core Infrastructure and Transportation
17319,0101000020E61000007156444DF47B52C04436902E36694440,,105002,5402066.0,,148 St.,100,West  147 Street,100 West  147 Street,New York,Manhattan,1.0,10039.0,40.821965999999996,-73.936786,1001745.911,238747.7993,1060196,1020150006,110.0,9,23400,MN03,0101000020110F0000BA0C9457B3655FC1C938274341055341,Transportation,Rail Yards and Maintenance,NYCT Maintenance and Other Facility,,,,,,,City Owned,Public,Metropolitan Transportation Authority,MTA,MTA: State,Metropolitan Transportation Authority,MTA,MTA,MTA;NYCDCAS,MTA: Selected Facilities and Program Sites Database;NYCDCAS: City Owned and Leased Properties,MTA: http://www1.nyc.gov/site/planning/data-maps/open-data/dwn-selfac.page;NYCDCAS: http://www1.nyc.gov/site/planning/data-maps/open-data/dwn-colp.page,MTA: 2015-03-01;NYCDCAS: 2017-06-01,dcas_facilities_colp;mta_facilities_sfpsd,Core Infrastructure and Transportation
17834,0101000020E6100000FA97A432C57C52C03D61890794614440,,114692,,,Northwest Promenade,40,River Road,40 River Road,New York,Manhattan,1.0,10044.0,40.76233,-73.949536,998229.651,217018.0114,,1013730001,108.0,5,23801,MN31,0101000020110F00000166482C16675FC11FA92A16B1FC5241,Parks and Plazas,Parks,City-State Park,,,,,,,City Owned,Public,Roosevelt Island Operating Corporation,RIOC,RIOC: State,Roosevelt Island Operating Corporation,RIOC,NYCDEP;NYCDOE;NYCFDNY,NYCDCAS;RIOC,NYCDCAS: City Owned and Leased Properties;RIOC: Selected Facilities and Program Sites Database,NYCDCAS: http://www1.nyc.gov/site/planning/data-maps/open-data/dwn-colp.page;RIOC: http://www1.nyc.gov/site/planning/data-maps/open-data/dwn-selfac.page,NYCDCAS: 2017-06-01;RIOC: 2015-03-01,dcas_facilities_colp;rioc_facilities_sfpsd,"Parks, Gardens, and Historical Sites"
18089,0101000020E6100000BE6BD097DE7752C0EE0912DBDD6B4440,,55819,5401004.0,,E 180 St,1151,E 180 St at Morris Park Ave,1151 E 180 St at Morris Park Ave,Bronx,Bronx,2.0,10460.0,40.842708,-73.872961,1019400.0,246323.9999,,2040110205,206.0,15,22000,BX17,0101000020110F00006AEAB819C35E5FC169D0592F3C085341,Transportation,Rail Yards and Maintenance,NYCT Subway Yard,,,,,,,,Public,Metropolitan Transportation Authority,MTA,MTA: State,Metropolitan Transportation Authority,MTA,,MTA,MTA: Selected Facilities and Program Sites Database,MTA: http://www1.nyc.gov/site/planning/data-maps/open-data/dwn-selfac.page,MTA: 2015-03-01,mta_facilities_sfpsd,Core Infrastructure and Transportation
18159,0101000020E6100000CE8C7E349C7A52C0E9D495CFF26E4440,55576;55577,123825,5402030.0,,207 St,3961,10 Avenue,3961 10 Avenue,New York,Manhattan,1.0,10034.0,40.866785,-73.915784,1007543.0340000001,255082.043,1084721,1021890001,112.0,10,29900,MN01,0101000020110F0000670DEFDB6A635FC1EF01D312B20B5341,Transportation,Rail Yards and Maintenance,NYCT Maintenance and Other Facility,,,,,,,City Owned,Public,Metropolitan Transportation Authority,MTA,MTA: State,Metropolitan Transportation Authority,MTA,MTA,MTA;NYCDCAS,MTA: Selected Facilities and Program Sites Database;NYCDCAS: City Owned and Leased Properties,MTA: http://www1.nyc.gov/site/planning/data-maps/open-data/dwn-selfac.page;NYCDCAS: http://www1.nyc.gov/site/planning/data-maps/open-data/dwn-colp.page,MTA: 2015-03-01;NYCDCAS: 2017-06-01,dcas_facilities_colp;mta_facilities_sfpsd,Core Infrastructure and Transportation
18294,0101000020E610000050FD8348867C52C0EE93A30051624440,,114716,,,Octagon Park,40,River Road,40 River Road,New York,Manhattan,1.0,10044.0,40.768097,-73.945696,999292.0001,219120.0001,,1013730001,108.0,5,23802,MN31,0101000020110F0000A49D674EAB665FC1449BC7FD84FD5241,Parks and Plazas,Parks,City-State Park,,,,,RIOC: 1.300,RIOC: Acres,City Owned,Public,Roosevelt Island Operating Corporation,RIOC,RIOC: State,Roosevelt Island Operating Corporation,RIOC,NYCDEP;NYCDOE;NYCFDNY,NYCDCAS;RIOC,NYCDCAS: City Owned and Leased Properties;RIOC: Selected Facilities and Program Sites Database,NYCDCAS: http://www1.nyc.gov/site/planning/data-maps/open-data/dwn-colp.page;RIOC: http://www1.nyc.gov/site/planning/data-maps/open-data/dwn-selfac.page,NYCDCAS: 2017-06-01;RIOC: 2015-03-01,dcas_facilities_colp;rioc_facilities_sfpsd,"Parks, Gardens, and Historical Sites"
18464,0101000020E6100000F7764B72C07B52C09E4143FF04674440,,47695,5303111001.0,,Mv Public NY,217,East  127 Street,217 East  127 Street,New York,Manhattan,1.0,10035.0,40.804840000000006,-73.933621,1002626.609,232508.9306,1087849,1017920005,111.0,8,24200,MN34,0101000020110F000095C7B3425B655FC198EA8185CB025341,Transportation,Bus Depots and Terminals,MTA Paratransit Vehicle Depot,,,,,,,,Non-public,Proprietary,Non-public,MTA: State,Metropolitan Transportation Authority,MTA,,MTA,MTA: Selected Facilities and Program Sites Database,MTA: http://www1.nyc.gov/site/planning/data-maps/open-data/dwn-selfac.page,MTA: 2015-03-01,mta_facilities_sfpsd,Core Infrastructure and Transportation
18779,0101000020E610000026C79DD2C16E52C090F46915FD5B4440,76556;169671;192792,154727,5405015.0,,Belmont Park Yard,222,St,222 St,Queens Village,Queens,4.0,11429.0,40.718661,-73.73058,1058934.0,201218.9998,,4108070050;4108120065;4108120085;4108120129,413.0,27,56800,QN34,0101000020110F00006889C6A7484F5FC18488E5176DF65241,Transportation,Rail Yards and Maintenance,LIRR Yard,,,,,,,,Public,Metropolitan Transportation Authority,MTA,MTA: State,Metropolitan Transportation Authority,MTA,,MTA,MTA: Selected Facilities and Program Sites Database,MTA: http://www1.nyc.gov/site/planning/data-maps/open-data/dwn-selfac.page,MTA: 2015-03-01,mta_facilities_sfpsd,Core Infrastructure and Transportation
19205,0101000020E61000000EDDEC0F947E52C0335019FF3E4B4440,87470,4497,5402031.0,,Coney Island,,,Avenue X,Brooklyn,Brooklyn,3.0,11223.0,40.58786,-73.977787,990419.6383,153450.3651,3412409,3072080040,313.0,47,30800,BK26,0101000020110F000085EE0B65286A5FC139B000F7AEE35241,Transportation,Rail Yards and Maintenance,NYCT Maintenance and Other Facility,,,,,,,City Owned,Public,Metropolitan Transportation Authority,MTA,MTA: State,Metropolitan Transportation Authority,MTA,MTA,MTA;NYCDCAS,MTA: Selected Facilities and Program Sites Database;NYCDCAS: City Owned and Leased Properties,MTA: http://www1.nyc.gov/site/planning/data-maps/open-data/dwn-selfac.page;NYCDCAS: http://www1.nyc.gov/site/planning/data-maps/open-data/dwn-colp.page,MTA: 2015-03-01;NYCDCAS: 2017-06-01,dcas_facilities_colp;mta_facilities_sfpsd,Core Infrastructure and Transportation
19261,0101000020E61000004FCDE506437852C04ED4D2DC0A554440,102480;156283;102482;158999;102483,102365,5401008.0,,Livonia,824,Linwood St at Hegeman Ave,824 Linwood St at Hegeman Ave,Brooklyn,Brooklyn,3.0,11208.0,40.664394,-73.879091,1017793.7159999999,181356.0908,3402598;3402644,3043140016;3043140034;3043140054;3043140074;3043370001;3043610001,305.0,42,111600,BK82,0101000020110F00009BBF95B26D5F5FC12513284BA5EE5241,Transportation,Rail Yards and Maintenance,NYCT Subway Yard,,,,,,,,Public,Metropolitan Transportation Authority,MTA,MTA: State,Metropolitan Transportation Authority,MTA,,MTA,MTA: Selected Facilities and Program Sites Database,MTA: http://www1.nyc.gov/site/planning/data-maps/open-data/dwn-selfac.page,MTA: 2015-03-01,mta_facilities_sfpsd,Core Infrastructure and Transportation
19751,0101000020E61000008F56B5A4A37F52C0E8DB82A5BA524440,,56598,5401018.0,,36/38 St.,38-01,9 Ave at 38 St,38-01 9 Ave at 38 St,Brooklyn,Brooklyn,3.0,11219.0,40.646321,-73.994363,985814.3289,174748.5618,3340913,3055820007,312.0,38,11000,BK34,0101000020110F00002B0BE3B3F56B5FC1D06BB14E0EEC5241,Transportation,Rail Yards and Maintenance,NYCT Subway Yard,,,,,,,,Public,Metropolitan Transportation Authority,MTA,MTA: State,Metropolitan Transportation Authority,MTA,,MTA,MTA: Selected Facilities and Program Sites Database,MTA: http://www1.nyc.gov/site/planning/data-maps/open-data/dwn-selfac.page,MTA: 2015-03-01,mta_facilities_sfpsd,Core Infrastructure and Transportation
19893,0101000020E610000032E884D0418852C08CD651D504514440,,100939,5302501001.0,,Castleton Depot,1390,Castleton Ave,1390 Castleton Ave,Staten Island,Staten Island,5.0,10310.0,40.63296,-74.129017,948440.0001,169907.0001,,5002150001,501.0,49,13302,SI22,0101000020110F000086813A1B997A5FC13AB2684A24EA5241,Transportation,Bus Depots and Terminals,MTA Bus Depot,,,,,,,City Owned,Public,Metropolitan Transportation Authority,MTA,MTA: State,Metropolitan Transportation Authority,MTA,MTA,MTA;NYCDCAS,MTA: Selected Facilities and Program Sites Database;NYCDCAS: City Owned and Leased Properties,MTA: http://www1.nyc.gov/site/planning/data-maps/open-data/dwn-selfac.page;NYCDCAS: http://www1.nyc.gov/site/planning/data-maps/open-data/dwn-colp.page,MTA: 2015-03-01;NYCDCAS: 2017-06-01,dcas_facilities_colp;mta_facilities_sfpsd,Core Infrastructure and Transportation
19938,0101000020E610000076374F75C88452C0471D1D5723514440,,109922,5402078.0,,Tompkinsville,331,Bay Street,331 Bay Street,Staten Is,Staten Is,,10301.0,40.633891,-74.074735,963506.9426,170228.9646,5106805,5004870112,501.0,49,2100,SI37,0101000020110F00005B64F971B2745FC101D39A6E46EA5241,Transportation,Rail Yards and Maintenance,NYCT Maintenance and Other Facility,,,,,,,,Public,Metropolitan Transportation Authority,MTA,MTA: State,Metropolitan Transportation Authority,MTA,,MTA,MTA: Selected Facilities and Program Sites Database,MTA: http://www1.nyc.gov/site/planning/data-maps/open-data/dwn-selfac.page,MTA: 2015-03-01,mta_facilities_sfpsd,Core Infrastructure and Transportation
20066,0101000020E6100000895DDBDB2D7852C0A4A65D4C336B4440,,138656,5302206001.0,,West Farms Depot,1100,East  177 Street,1100 East  177 Street,Bronx,Bronx,2.0,10460.0,40.837503000000005,-73.877799,1018064.072,244426.0096,2028348,2039040040,206.0,17,6000,BX75,0101000020110F0000B884CCBD495F5FC1E3EBF1B67C075341,Transportation,Bus Depots and Terminals,MTA Bus Depot,,,,,,,City Owned,Public,Metropolitan Transportation Authority,MTA,MTA: State,Metropolitan Transportation Authority,MTA,MTA,MTA;NYCDCAS,MTA: Selected Facilities and Program Sites Database;NYCDCAS: City Owned and Leased Properties,MTA: http://www1.nyc.gov/site/planning/data-maps/open-data/dwn-selfac.page;NYCDCAS: http://www1.nyc.gov/site/planning/data-maps/open-data/dwn-colp.page,MTA: 2015-03-01;NYCDCAS: 2017-06-01,dcas_facilities_colp;mta_facilities_sfpsd,Core Infrastructure and Transportation
20076,0101000020E610000068B27F9E067A52C0226FB9FAB16F4440,,143581,5403002.0,,Bn Yard,,,West Kingsbridge Rd,Bronx,Bronx,2.0,10463.0,40.872619,-73.906654,1010066.0,257210.0001,,2032380126,207.0,14,26900,BX30,0101000020110F0000AE9BBAC56C625FC113132FC7880C5341,Transportation,Rail Yards and Maintenance,Metro-North Yard,,,,,,,,Public,Metropolitan Transportation Authority,MTA,MTA: State,Metropolitan Transportation Authority,MTA,,MTA,MTA: Selected Facilities and Program Sites Database,MTA: http://www1.nyc.gov/site/planning/data-maps/open-data/dwn-selfac.page,MTA: 2015-03-01,mta_facilities_sfpsd,Core Infrastructure and Transportation
20212,0101000020E6100000AE4676A5657552C0707841446A4A4440,,156073,5401024.0,,Rockaway Park,101,St and Glenwood Rd,101 St and Glenwood Rd,Rockaway Park,Queens,4.0,11694.0,40.581368,-73.834329,1030269.0,151128.0,,4161660100,414.0,32,93800,QN10,0101000020110F000081E811FA8F5A5FC118D2D410C1E25241,Transportation,Rail Yards and Maintenance,NYCT Subway Yard,,,,,,,,Public,Metropolitan Transportation Authority,MTA,MTA: State,Metropolitan Transportation Authority,MTA,,MTA,MTA: Selected Facilities and Program Sites Database,MTA: http://www1.nyc.gov/site/planning/data-maps/open-data/dwn-selfac.page,MTA: 2015-03-01,mta_facilities_sfpsd,Core Infrastructure and Transportation
20687,0101000020E6100000CFBD874B8E7352C0F7562426A8594440,,83890,5405019.0,,Jamaica E Yard,,,Sutphin Boulevard,Jamaica,Queens,4.0,11435.0,40.700444,-73.80556,1038164.0,194527.0001,,4099980065,412.0,27,20800,QN61,0101000020110F00001CA7D7566F575FC1CE35F747D0F35241,Transportation,Rail Yards and Maintenance,LIRR Yard,,,,,,,,Public,Metropolitan Transportation Authority,MTA,MTA: State,Metropolitan Transportation Authority,MTA,,MTA,MTA: Selected Facilities and Program Sites Database,MTA: http://www1.nyc.gov/site/planning/data-maps/open-data/dwn-selfac.page,MTA: 2015-03-01,mta_facilities_sfpsd,Core Infrastructure and Transportation
20852,0101000020E61000003B18B14F007052C0226E4E25034E4440,30406,158178,5405002.0,,Far Rockaway Yard,,,Mott Avenue,Far Rockaway,Queens,4.0,11691.0,40.609471,-73.750019,1053659.0,161422.0,,4155030001;4155290004,414.0,31,103202,QN15,0101000020110F0000F8A3E8A365515FC16445CC10C7E65241,Transportation,Rail Yards and Maintenance,LIRR Yard,,,,,,,,Public,Metropolitan Transportation Authority,MTA,MTA: State,Metropolitan Transportation Authority,MTA,,MTA,MTA: Selected Facilities and Program Sites Database,MTA: http://www1.nyc.gov/site/planning/data-maps/open-data/dwn-selfac.page,MTA: 2015-03-01,mta_facilities_sfpsd,Core Infrastructure and Transportation
20889,0101000020E6100000812557B1F87552C01A89D008366C4440,164215,107333,5402007.0,,Pelham,1496,Benson Street,1496 Benson Street,Bronx,Bronx,2.0,10461.0,40.845399,-73.843304,1027604.0,247317.9998,,2041420014,211.0,13,28400,BX37,0101000020110F00007C47FCBF895B5FC1A7C27B2E9F085341,Transportation,Rail Yards and Maintenance,NYCT Maintenance and Other Facility,,,,,,,City Owned,Public,Metropolitan Transportation Authority,MTA,MTA: State,Metropolitan Transportation Authority,MTA,MTA,MTA;NYCDCAS,MTA: Selected Facilities and Program Sites Database;NYCDCAS: City Owned and Leased Properties,MTA: http://www1.nyc.gov/site/planning/data-maps/open-data/dwn-selfac.page;NYCDCAS: http://www1.nyc.gov/site/planning/data-maps/open-data/dwn-colp.page,MTA: 2015-03-01;NYCDCAS: 2017-06-01,dcas_facilities_colp;mta_facilities_sfpsd,Core Infrastructure and Transportation
20985,0101000020E61000007104A9143B8F52C0CEC29E76F8434440,,45932,5302503001.0,,Charleston Depot,4700,Arthur Kill Road,4700 Arthur Kill Road,Staten Is,Staten Is,,10309.0,40.53102,-74.237981,918095.2745,132831.1932,5169957,5074870100,503.0,51,22600,SI11,0101000020110F00001426848F71865FC17EBF2DD98CDB5241,Transportation,Bus Depots and Terminals,MTA Bus Depot,,,,,,,City Owned,Public,Metropolitan Transportation Authority,MTA,MTA: State,Metropolitan Transportation Authority,MTA,MTA;NYCDCAS;NYCDPR,MTA;NYCDCAS,MTA: Selected Facilities and Program Sites Database;NYCDCAS: City Owned and Leased Properties,MTA: http://www1.nyc.gov/site/planning/data-maps/open-data/dwn-selfac.page;NYCDCAS: http://www1.nyc.gov/site/planning/data-maps/open-data/dwn-colp.page,MTA: 2015-03-01;NYCDCAS: 2017-06-01,dcas_facilities_colp;mta_facilities_sfpsd,Core Infrastructure and Transportation
21471,0101000020E6100000AF777FBC577652C0F7578FFB56734440,165553,163930,5401001.0,,239 St.,4570,Furman Ave at 240 St,4570 Furman Ave at 240 St,Bronx,Bronx,2.0,10466.0,40.901092,-73.84910500000001,1025964.0,267605.9999,,2050850013;2050850100,212.0,11,43400,BX62,0101000020110F00003CA7E7302B5C5FC167A3CEEBA0105341,Transportation,Rail Yards and Maintenance,NYCT Subway Yard,,,,,,,City Owned,Public,Metropolitan Transportation Authority,MTA,MTA: State,Metropolitan Transportation Authority,MTA,MTA,MTA;NYCDCAS,MTA: Selected Facilities and Program Sites Database;NYCDCAS: City Owned and Leased Properties,MTA: http://www1.nyc.gov/site/planning/data-maps/open-data/dwn-selfac.page;NYCDCAS: http://www1.nyc.gov/site/planning/data-maps/open-data/dwn-colp.page,MTA: 2015-03-01;NYCDCAS: 2017-06-01,dcas_facilities_colp;mta_facilities_sfpsd,Core Infrastructure and Transportation
21820,0101000020E6100000957CEC2E507652C0749A05DA1D604440,,122076,5405010.0,,Shea Yard/Mets-Willets Point Yard,44,Ave,44 Ave,Corona,Queens,4.0,11368.0,40.750911,-73.848644,1026186.163,212890.1316,4556465,4020180300,481.0,21,38302,QN99,0101000020110F00001CDE885C1E5C5FC12757948E0DFB5241,Transportation,Rail Yards and Maintenance,LIRR Yard,,,,,,,,Public,Metropolitan Transportation Authority,MTA,MTA: State,Metropolitan Transportation Authority,MTA,,MTA,MTA: Selected Facilities and Program Sites Database,MTA: http://www1.nyc.gov/site/planning/data-maps/open-data/dwn-selfac.page,MTA: 2015-03-01,mta_facilities_sfpsd,Core Infrastructure and Transportation
22097,0101000020E61000006479573D607A52C0A8FDD64E94524440,,96948,5303318001.0,,Premier Para,940,Remsen Avenue,940 Remsen Avenue,Brooklyn,Brooklyn,3.0,11236.0,40.645151,-73.912124,1008636.402,174334.5644,3256902,3079460078,318.0,45,96200,BK50,0101000020110F00006FCE740005635FC11A6BBF64E3EB5241,Transportation,Bus Depots and Terminals,MTA Paratransit Vehicle Depot,,,,,,,,Non-public,Proprietary,Non-public,MTA: State,Metropolitan Transportation Authority,MTA,,MTA,MTA: Selected Facilities and Program Sites Database,MTA: http://www1.nyc.gov/site/planning/data-maps/open-data/dwn-selfac.page,MTA: 2015-03-01,mta_facilities_sfpsd,Core Infrastructure and Transportation
22306,0101000020E6100000F1BC546CCC7152C0763579CA6A5A4440,,163914,5406002.0,,Hillside Maintenance Facility,182-53,Liberty Avenue,182-53 Liberty Avenue,Saint Albans,Queens,4.0,11412.0,40.706384,-73.778102,1045772.0,196709.0,,,412.0,27,44400,QN61,0101000020110F000084F0C32F73545FC1BE5A0957AAF45241,Transportation,Rail Yards and Maintenance,LIRR Maintenance and Other Facility,,,,,,,,Public,Metropolitan Transportation Authority,MTA,MTA: State,Metropolitan Transportation Authority,MTA,,MTA,MTA: Selected Facilities and Program Sites Database,MTA: http://www1.nyc.gov/site/planning/data-maps/open-data/dwn-selfac.page,MTA: 2015-03-01,mta_facilities_sfpsd,Core Infrastructure and Transportation
22702,0101000020E610000094DE37BEF67752C09C6F44F7AC6B4440,125641;18916;40080;125640;26634,125635,5401005.0,,Unionport,1151,E 180 St at Morris Park Ave,1151 E 180 St at Morris Park Ave,Bronx,Bronx,2.0,10460.0,40.841215999999996,-73.87443499999999,1018993.0,245780.0,,2040080004;2040080010;2040110001;2040110005;2040110210;2040110215,206.0,15,22000,BX17,0101000020110F00004366281FEC5E5FC14583874C05085341,Transportation,Rail Yards and Maintenance,NYCT Subway Yard,,,,,,,,Public,Metropolitan Transportation Authority,MTA,MTA: State,Metropolitan Transportation Authority,MTA,,MTA,MTA: Selected Facilities and Program Sites Database,MTA: http://www1.nyc.gov/site/planning/data-maps/open-data/dwn-selfac.page,MTA: 2015-03-01,mta_facilities_sfpsd,Core Infrastructure and Transportation
22770,0101000020E61000000932022A1C7F52C06D01A1F5F0614440,,148739,5402080.0,,NYCT Facility,333,West   53 Street,333 West   53 Street,New York,Manhattan,1.0,10019.0,40.765166,-73.986094,988102.2215,218047.5124,1025391,1010440003,104.0,3,13300,MN15,0101000020110F0000C3CCD4930F6B5FC131CF924A19FD5241,Transportation,Rail Yards and Maintenance,NYCT Subway Yard,,,,,,,City Owned,Public,Metropolitan Transportation Authority,MTA,MTA: State,Metropolitan Transportation Authority,MTA,MTA,MTA;NYCDCAS,MTA: Selected Facilities and Program Sites Database;NYCDCAS: City Owned and Leased Properties,MTA: http://www1.nyc.gov/site/planning/data-maps/open-data/dwn-selfac.page;NYCDCAS: http://www1.nyc.gov/site/planning/data-maps/open-data/dwn-colp.page,MTA: 2015-03-01;NYCDCAS: 2017-06-01,dcas_facilities_colp;mta_facilities_sfpsd,Core Infrastructure and Transportation
23621,0101000020E61000005A65A6B4FE7952C0AC8F87BEBB534440,,166118,5402072.0,,NYCT Facility,1035,Rockaway Avenue,1035 Rockaway Avenue,Brooklyn,Brooklyn,3.0,11236.0,40.654167,-73.906171,1010285.0,177621.0001,3326679,3036440021,316.0,42,109800,BK82,0101000020110F000047EF9E545F625FC137423B1B2EED5241,Transportation,Rail Yards and Maintenance,NYCT Maintenance and Other Facility,,,,,,,,Public,Metropolitan Transportation Authority,MTA,MTA: State,Metropolitan Transportation Authority,MTA,,MTA,MTA: Selected Facilities and Program Sites Database,MTA: http://www1.nyc.gov/site/planning/data-maps/open-data/dwn-selfac.page,MTA: 2015-03-01,mta_facilities_sfpsd,Core Infrastructure and Transportation
23695,0101000020E6100000130B7C45B77C52C0CF15A584605F4440,,158015,5406001.0,,Arch Street Shop,46-30,21 Street,46-30 21 Street,Long Island City,Queens,4.0,11101.0,40.745133,-73.948686,998468.6213,210752.8837,4000482,4000560051,402.0,26,700,QN31,0101000020110F000053A48084FE665FC1782C8C4D39FA5241,Transportation,Rail Yards and Maintenance,LIRR Maintenance and Other Facility,,,,,,,,Public,Metropolitan Transportation Authority,MTA,MTA: State,Metropolitan Transportation Authority,MTA,,MTA,MTA: Selected Facilities and Program Sites Database,MTA: http://www1.nyc.gov/site/planning/data-maps/open-data/dwn-selfac.page,MTA: 2015-03-01,mta_facilities_sfpsd,Core Infrastructure and Transportation
23944,0101000020E61000000BB8E7F9D37B52C01C7920B248694440,31641,164040,5401010.0,,148 St.,147,St and Lenox Ave,147 St and Lenox Ave,New York,Manhattan,1.0,10039.0,40.822531,-73.934813,1002292.0,238954.0002,,1020160001,110.0,9,23600,MN03,0101000020110F0000EB270B6F7C655FC1FCE66C0A56055341,Transportation,Rail Yards and Maintenance,NYCT Subway Yard,,,,,,,City Owned,Public,Metropolitan Transportation Authority,MTA,MTA: State,Metropolitan Transportation Authority,MTA,MTA,MTA;NYCDCAS,MTA: Selected Facilities and Program Sites Database;NYCDCAS: City Owned and Leased Properties,MTA: http://www1.nyc.gov/site/planning/data-maps/open-data/dwn-selfac.page;NYCDCAS: http://www1.nyc.gov/site/planning/data-maps/open-data/dwn-colp.page,MTA: 2015-03-01;NYCDCAS: 2017-06-01,dcas_facilities_colp;mta_facilities_sfpsd,Core Infrastructure and Transportation
24740,0101000020E6100000F86BB2463D8052C071CCB22781534440,,122256,5402065.0,,38 St.,465,38 Street,465 38 Street,Brooklyn,Brooklyn,3.0,11232.0,40.652378999999996,-74.00374000000001,983212.1070000001,176955.6489,3339234,3007010038,307.0,38,8400,BK32,0101000020110F0000E98BD4A9FA6C5FC1FBA28E84ECEC5241,Transportation,Rail Yards and Maintenance,NYCT Maintenance and Other Facility,,,,,,,,Public,Metropolitan Transportation Authority,MTA,MTA: State,Metropolitan Transportation Authority,MTA,,MTA,MTA: Selected Facilities and Program Sites Database,MTA: http://www1.nyc.gov/site/planning/data-maps/open-data/dwn-selfac.page,MTA: 2015-03-01,mta_facilities_sfpsd,Core Infrastructure and Transportation
24933,0101000020E6100000139A2496948452C083A5BA80974F4440,94478;94506,141256,5401026.0,,Clifton,,,Bay Street,Staten Island,Staten Island,5.0,10304.0,40.621811,-74.071569,964382.0,165827.0001,,5004960215;5028200001;5028200005,501.0,49,600,SI37,0101000020110F00006B43F9555A745FC1C7E372798BE85241,Transportation,Rail Yards and Maintenance,NYCT Subway Yard,,,,,,,,Public,Metropolitan Transportation Authority,MTA,MTA: State,Metropolitan Transportation Authority,MTA,,MTA,MTA: Selected Facilities and Program Sites Database,MTA: http://www1.nyc.gov/site/planning/data-maps/open-data/dwn-selfac.page,MTA: 2015-03-01,mta_facilities_sfpsd,Core Infrastructure and Transportation
25147,0101000020E6100000A60D87A5817B52C03A22DFA5D45F4440,,115911,5407001.0,,Sunnyside Yard,,,Skillman Avenue,Long Island City,Queens,4.0,11101.0,40.748677,-73.929788,1003704.1390000001,212047.7321,4550832,4002140001,402.0,26,17100,QN31,0101000020110F0000B801B296F0645FC1E58D347DBBFA5241,Transportation,Rail Yards and Maintenance,Amtrak Yard,,,,,,,,Public,Amtrak,Amtrak,Amtrak: Federal,Amtrak,Amtrak,,Amtrak,Amtrak: Selected Facilities and Program Sites Database,Amtrak: http://www1.nyc.gov/site/planning/data-maps/open-data/dwn-selfac.page,Amtrak: 2015-03-01,amtrak_facilities_sfpsd,Core Infrastructure and Transportation
25459,0101000020E6100000D253E410717A52C0F94B8BFA246F4440,55576;55577,123886,5402050.0,,NYCT Facility,396,West  215 Street,396 West  215 Street,New York,Manhattan,1.0,10034.0,40.868316,-73.913151,1008270.673,255640.6615,1084818,1021890001,112.0,10,29900,MN01,0101000020110F00002686439521635FC101F37E6AEA0B5341,Transportation,Rail Yards and Maintenance,NYCT Maintenance and Other Facility,,,,,,,City Owned,Public,Metropolitan Transportation Authority,MTA,MTA: State,Metropolitan Transportation Authority,MTA,MTA,MTA;NYCDCAS,MTA: Selected Facilities and Program Sites Database;NYCDCAS: City Owned and Leased Properties,MTA: http://www1.nyc.gov/site/planning/data-maps/open-data/dwn-selfac.page;NYCDCAS: http://www1.nyc.gov/site/planning/data-maps/open-data/dwn-colp.page,MTA: 2015-03-01;NYCDCAS: 2017-06-01,dcas_facilities_colp;mta_facilities_sfpsd,Core Infrastructure and Transportation
25793,0101000020E61000000EDC813AE58052C0A983BC1E4C584440,,116535,,,Nolan Park,1,Governors Island,1 Governors Island,New York,Manhattan,1.0,10004.0,40.689823,-74.013991,980369.9999,190598.0001,,1000010010,101.0,1,500,MN99,0101000020110F000034698AF2176E5FC10409176E4AF25241,Parks and Plazas,Parks,City-State Park,,,,,TGI: 4.000,TGI: Acres,,Public,Trust for Governors Island,TGI,TGI: City-State,Trust for Governors Island,TGI,,TGI,TGI: Selected Facilities and Program Sites Database,TGI: http://www1.nyc.gov/site/planning/data-maps/open-data/dwn-selfac.page,TGI: 2015-03-01,tgi_facilities_sfpsd,"Parks, Gardens, and Historical Sites"
25869,0101000020E61000001BB96E4A797452C0D3A57F492A594440,,90164,5405009.0,,Richmond Hill Yard,89,Ave,89 Ave,Richmond Hill,Queens,4.0,11418.0,40.696603,-73.819903,1034189.957,193119.1271,4602536,4093750058,409.0,29,14202,QN54,0101000020110F0000B5A6CA80FE585FC14983934943F35241,Transportation,Rail Yards and Maintenance,LIRR Yard,,,,,,,,Public,Metropolitan Transportation Authority,MTA,MTA: State,Metropolitan Transportation Authority,MTA,,MTA,MTA: Selected Facilities and Program Sites Database,MTA: http://www1.nyc.gov/site/planning/data-maps/open-data/dwn-selfac.page,MTA: 2015-03-01,mta_facilities_sfpsd,Core Infrastructure and Transportation
25933,0101000020E6100000BDAC8905BE6E52C01763601DC75B4440,76535,76551,5302413002.0,,Queens Village Depot,222-22,97 Avenue,222-22 97 Avenue,Queens Village,Queens,4.0,11429.0,40.717014,-73.73034799999999,1059000.108,200619.1543,4430408;4576196,4108080001,413.0,27,56800,QN34,0101000020110F00002B5BE732424F5FC1EF13549E30F65241,Transportation,Bus Depots and Terminals,MTA Bus Depot,,,,,,,City Owned,Public,Metropolitan Transportation Authority,MTA,MTA: State,Metropolitan Transportation Authority,MTA,MTA,MTA;NYCDCAS,MTA: Selected Facilities and Program Sites Database;NYCDCAS: City Owned and Leased Properties,MTA: http://www1.nyc.gov/site/planning/data-maps/open-data/dwn-selfac.page;NYCDCAS: http://www1.nyc.gov/site/planning/data-maps/open-data/dwn-colp.page,MTA: 2015-03-01;NYCDCAS: 2017-06-01,dcas_facilities_colp;mta_facilities_sfpsd,Core Infrastructure and Transportation
26020,0101000020E6100000BE4C1421757F52C056D636C5E3604440,,85015,,,Port Authority Bus Terminal,641,8 Avenue,641 8 Avenue,New York,Manhattan,1.0,10018.0,40.756951,-73.991524,986598.1893,215054.6566,1083268,1010320029,104.0,3,11500,MN15,0101000020110F000018A894B1A66B5FC1043A8A74EBFB5241,Transportation,Bus Depots and Terminals,PANYNJ Bus Terminal,,,,,,,,Public,Port Authority of New York and New Jersey,PANYNJ,PANYNJ: State,Port Authority of New York and New Jersey,PANYNJ,,PANYNJ,PANYNJ: Selected Facilities and Program Sites Database,PANYNJ: http://www1.nyc.gov/site/planning/data-maps/open-data/dwn-selfac.page,PANYNJ: 2015-03-01,panynj_facilities_sfpsd,Core Infrastructure and Transportation
26053,0101000020E6100000E7FF55478E7A52C0255AF2785A5C4440,,132292,5402097.0,,NYCT Facility,55-04,Maspeth Avenue,55-04 Maspeth Avenue,Maspeth,Queens,4.0,11378.0,40.721511,-73.914934,1007829.498,202153.8561,4437469,4026100530,405.0,30,21900,QN31,0101000020110F0000B84B273453635FC19A7F66BED5F65241,Transportation,Rail Yards and Maintenance,NYCT Subway Yard,,,,,,,,Public,Metropolitan Transportation Authority,MTA,MTA: State,Metropolitan Transportation Authority,MTA,,MTA,MTA: Selected Facilities and Program Sites Database,MTA: http://www1.nyc.gov/site/planning/data-maps/open-data/dwn-selfac.page,MTA: 2015-03-01,mta_facilities_sfpsd,Core Infrastructure and Transportation
26210,0101000020E61000002B685A62658E52C099840B7904434440,45917,160747,,,South Shore Park & Ride,,,W Shore Expy & Richmond Pkwy at Pleasant Plains Ave,Staten Island,Staten Island,5.0,10309.0,40.523573999999996,-74.224938,921714.0001,130109.0,,,503.0,51,22600,SI11,0101000020110F0000A33F599306855FC1C48633397CDA5241,Transportation,Parking Lots and Garages,Public Park and Ride Lot,,,,,,,,Public,NYS Department of Transportation,NYSDOT,NYSDOT: State,NYS Department of Transportation,NYSDOT,,NYSDOT,NYSDOT: Selected Facilities and Program Sites Database,NYSDOT: http://www1.nyc.gov/site/planning/data-maps/open-data/dwn-selfac.page,NYSDOT: 2015-03-01,nysdot_facilities_sfpsd,Core Infrastructure and Transportation
26353,0101000020E6100000F9F4D896017C52C03D7E6FD39F5F4440,165978;52265,116201,5405013.0,,Yard A,,,Queens Boulevard,Long Island City,Queens,4.0,11101.0,40.747065,-73.937597,1001541.041,211458.6247,4551589,4002140068;4002390130;4002700002,402.0,26,17100,QN31,0101000020110F0000C75281E9C9655FC14577CA4580FA5241,Transportation,Rail Yards and Maintenance,LIRR Yard,,,,,,,,Public,Metropolitan Transportation Authority,MTA,MTA: State,Metropolitan Transportation Authority,MTA,,MTA,MTA: Selected Facilities and Program Sites Database,MTA: http://www1.nyc.gov/site/planning/data-maps/open-data/dwn-selfac.page,MTA: 2015-03-01,mta_facilities_sfpsd,Core Infrastructure and Transportation
26786,0101000020E610000039622D3E058152C0051A6CEA3C584440,,147486,,,Parade Ground,1,Governors Island,1 Governors Island,New York,Manhattan,1.0,10004.0,40.689359,-74.015945,979828.0,190429.0001,,1000010010,101.0,1,500,MN99,0101000020110F000017FEB5534E6E5FC1CC94676639F25241,Parks and Plazas,Parks,City-State Park,,,,,TGI: 10.000,TGI: Acres,,Public,Trust for Governors Island,TGI,TGI: City-State,Trust for Governors Island,TGI,,TGI,TGI: Selected Facilities and Program Sites Database,TGI: http://www1.nyc.gov/site/planning/data-maps/open-data/dwn-selfac.page,TGI: 2015-03-01,tgi_facilities_sfpsd,"Parks, Gardens, and Historical Sites"
26966,0101000020E6100000A96BED7DAA7C52C08E8F16670C5F4440,,89512,5403003.0,,Arch Street Yard,21-08,Jackson Avenue,21-08 Jackson Avenue,Long Island City,Queens,4.0,11101.0,40.742566,-73.947906,998685.5702,209817.5795,4543069,4000720001,402.0,26,1900,QN31,0101000020110F0000A1FB6ECFE8665FC1939CAC02DBF95241,Transportation,Rail Yards and Maintenance,Metro-North Yard,,,,,,,,Public,Metropolitan Transportation Authority,MTA,MTA: State,Metropolitan Transportation Authority,MTA,,MTA,MTA: Selected Facilities and Program Sites Database,MTA: http://www1.nyc.gov/site/planning/data-maps/open-data/dwn-selfac.page,MTA: 2015-03-01,mta_facilities_sfpsd,Core Infrastructure and Transportation
27026,0101000020E6100000ACE5CE4C308852C0A3CEDC43C2514440,,123463,5303501001.0,,Mv Public,1957,Richmond Terrace,1957 Richmond Terrace,Staten Island,Staten Island,5.0,10310.0,40.638740999999996,-74.127948,948740.0001,172012.9999,,5001850527,501.0,49,20700,SI28,0101000020110F0000D1BA315B7B7A5FC19858354CF8EA5241,Transportation,Bus Depots and Terminals,MTA Paratransit Vehicle Depot,,,,,,,,Non-public,Proprietary,Non-public,MTA: State,Metropolitan Transportation Authority,MTA,,MTA,MTA: Selected Facilities and Program Sites Database,MTA: http://www1.nyc.gov/site/planning/data-maps/open-data/dwn-selfac.page,MTA: 2015-03-01,mta_facilities_sfpsd,Core Infrastructure and Transportation
27064,0101000020E6100000B76114048F7852C0F06AB93313624440,,64813,5302403001.0,,Laguardia Depot,85-01,24 Avenue,85-01 24 Avenue,East Elmhurst,Queens,4.0,11369.0,40.766211,-73.883729,1016457.6259999999,218449.5604,4441816,4010800001,403.0,22,32900,QN28,0101000020110F0000D0A4C5C5EE5F5FC132DE7EB03FFD5241,Transportation,Bus Depots and Terminals,MTA Bus Depot,,,,,,,City Leased,Public,Metropolitan Transportation Authority,MTA,MTA: State,Metropolitan Transportation Authority,MTA,,MTA;NYCDCAS,MTA: Selected Facilities and Program Sites Database;NYCDCAS: City Owned and Leased Properties,MTA: http://www1.nyc.gov/site/planning/data-maps/open-data/dwn-selfac.page;NYCDCAS: http://www1.nyc.gov/site/planning/data-maps/open-data/dwn-colp.page,MTA: 2015-03-01;NYCDCAS: 2017-06-01,dcas_facilities_colp;mta_facilities_sfpsd,Core Infrastructure and Transportation
27348,0101000020E61000001DAF40F4A47152C02C45F295405A4440,,95499,5406004.0,,M Of W Shop,,,Liberty Avenue,Jamaica,Queens,4.0,11433.0,40.705096000000005,-73.775693,1046441.118,196241.7264,4585370,4103430005,412.0,27,44400,QN61,0101000020110F000038B9F82430545FC1E7A0370E7BF45241,Transportation,Rail Yards and Maintenance,LIRR Maintenance and Other Facility,,,,,,,,Public,Metropolitan Transportation Authority,MTA,MTA: State,Metropolitan Transportation Authority,MTA,,MTA,MTA: Selected Facilities and Program Sites Database,MTA: http://www1.nyc.gov/site/planning/data-maps/open-data/dwn-selfac.page,MTA: 2015-03-01,mta_facilities_sfpsd,Core Infrastructure and Transportation
27362,0101000020E61000007156444DF47B52C04436902E36694440,,105004,5302110001.0,,Mother Clara Hale Depot,721,Lenox Avenue,721 Lenox Avenue,New York,Manhattan,1.0,10039.0,40.821965999999996,-73.936786,1001745.911,238747.7993,1060196,1020150006,110.0,9,23400,MN03,0101000020110F0000BA0C9457B3655FC1C938274341055341,Transportation,Bus Depots and Terminals,MTA Bus Depot,,,,,,,City Owned,Public,Metropolitan Transportation Authority,MTA,MTA: State,Metropolitan Transportation Authority,MTA,MTA,MTA;NYCDCAS,MTA: Selected Facilities and Program Sites Database;NYCDCAS: City Owned and Leased Properties,MTA: http://www1.nyc.gov/site/planning/data-maps/open-data/dwn-selfac.page;NYCDCAS: http://www1.nyc.gov/site/planning/data-maps/open-data/dwn-colp.page,MTA: 2015-03-01;NYCDCAS: 2017-06-01,dcas_facilities_colp;mta_facilities_sfpsd,Core Infrastructure and Transportation
28200,0101000020E61000007A6EA12B117952C09A5E622CD3534440,,39954,5303305001.0,,Empire Para,880,Alabama Avenue,880 Alabama Avenue,Brooklyn,Brooklyn,3.0,11207.0,40.654882,-73.891673,1014307.405,177886.2324,3097770,3043650012,305.0,42,110400,BK82,0101000020110F0000EBDC61DACB605FC107BEBF5548ED5241,Transportation,Bus Depots and Terminals,MTA Paratransit Vehicle Depot,,,,,,,,Non-public,Proprietary,Non-public,MTA: State,Metropolitan Transportation Authority,MTA,,MTA,MTA: Selected Facilities and Program Sites Database,MTA: http://www1.nyc.gov/site/planning/data-maps/open-data/dwn-selfac.page,MTA: 2015-03-01,mta_facilities_sfpsd,Core Infrastructure and Transportation
28547,0101000020E610000036221807977952C07FFB3A70CE564440,,110495,5302305001.0,,East New York Depot,25,Jamaica Avenue,25 Jamaica Avenue,Brooklyn,Brooklyn,3.0,11207.0,40.678175,-73.899843,1012030.603,186369.8609,3393286,3034760010,305.0,37,114201,BK83,0101000020110F00008F1C1E39AF615FC118E422F49EF05241,Transportation,Bus Depots and Terminals,MTA Bus Depot,,,,,,,City Owned,Public,Metropolitan Transportation Authority,MTA,MTA: State,Metropolitan Transportation Authority,MTA,MTA,MTA;NYCDCAS,MTA: Selected Facilities and Program Sites Database;NYCDCAS: City Owned and Leased Properties,MTA: http://www1.nyc.gov/site/planning/data-maps/open-data/dwn-selfac.page;NYCDCAS: http://www1.nyc.gov/site/planning/data-maps/open-data/dwn-colp.page,MTA: 2015-03-01;NYCDCAS: 2017-06-01,dcas_facilities_colp;mta_facilities_sfpsd,Core Infrastructure and Transportation
28772,0101000020E610000017F2086EA47B52C05F5CAAD2166B4440,,160115,5404001.0,,Highbridge Facility,,,Maj Wm Deegan Blvd,Bronx,Bronx,2.0,10452.0,40.836634000000004,-73.931911,1003091.0,244093.0001,,2025390506,204.0,16,19300,BX26,0101000020110F00005CAEE5AB2B655FC1230FCBBF5C075341,Transportation,Rail Yards and Maintenance,Metro-North Maintenance and Other Facility,,,,,,,,Public,Metropolitan Transportation Authority,MTA,MTA: State,Metropolitan Transportation Authority,MTA,,MTA,MTA: Selected Facilities and Program Sites Database,MTA: http://www1.nyc.gov/site/planning/data-maps/open-data/dwn-selfac.page,MTA: 2015-03-01,mta_facilities_sfpsd,Core Infrastructure and Transportation
29107,0101000020E6100000213CDA38628152C05EF1D4230D584440,,116541,,,Play Lawn,1,Governors Island,1 Governors Island,New York,Manhattan,1.0,10004.0,40.687901000000004,-74.02162,978253.9998,189897.9998,,1000010010,101.0,1,500,MN99,0101000020110F0000DE30F342EC6E5FC1DB1C6BE303F25241,Parks and Plazas,Parks,City-State Park,,,,,TGI: 14.000,TGI: Acres,,Public,Trust for Governors Island,TGI,TGI: City-State,Trust for Governors Island,TGI,,TGI,TGI: Selected Facilities and Program Sites Database,TGI: http://www1.nyc.gov/site/planning/data-maps/open-data/dwn-selfac.page,TGI: 2015-03-01,tgi_facilities_sfpsd,"Parks, Gardens, and Historical Sites"
29296,0101000020E6100000895C70067F7F52C0CA8AE1EA004C4440,,99567,5302311001.0,,Ullmer Park Depot,2449,Harway Avenue,2449 Harway Avenue,Brooklyn,Brooklyn,3.0,11214.0,40.593778,-73.99212800000001,986436.3469,155605.8575,3186632,3068930001,311.0,47,30400,BK29,0101000020110F00008B36BF80B76B5FC1335491D987E45241,Transportation,Bus Depots and Terminals,MTA Bus Depot,,,,,,,City Owned,Public,Metropolitan Transportation Authority,MTA,MTA: State,Metropolitan Transportation Authority,MTA,MTA,MTA;NYCDCAS,MTA: Selected Facilities and Program Sites Database;NYCDCAS: City Owned and Leased Properties,MTA: http://www1.nyc.gov/site/planning/data-maps/open-data/dwn-selfac.page;NYCDCAS: http://www1.nyc.gov/site/planning/data-maps/open-data/dwn-colp.page,MTA: 2015-03-01;NYCDCAS: 2017-06-01,dcas_facilities_colp;mta_facilities_sfpsd,Core Infrastructure and Transportation
29349,0101000020E61000004A0D6D00367D52C011E335AFEA564440,,5514,5402051.0,,NYCT Facility,1114,Atlantic Avenue,1114 Atlantic Avenue,Brooklyn,Brooklyn,3.0,11238.0,40.679037,-73.95642099999999,996337.5414,186671.0109,3332194,3011260032,308.0,35,30500,BK61,0101000020110F0000456D1AC8D5675FC12A6A0B96BEF05241,Transportation,Rail Yards and Maintenance,NYCT Maintenance and Other Facility,,,,,,,,Public,Metropolitan Transportation Authority,MTA,MTA: State,Metropolitan Transportation Authority,MTA,,MTA,MTA: Selected Facilities and Program Sites Database,MTA: http://www1.nyc.gov/site/planning/data-maps/open-data/dwn-selfac.page,MTA: 2015-03-01,mta_facilities_sfpsd,Core Infrastructure and Transportation
29488,0101000020E6100000A5C00298328652C08448861C5B4B4440,,94440,5306001.0,,Dongan Hills,,,Seaview Avenue,Staten Island,Staten Island,5.0,10304.0,40.588718,-74.096838,957354.0,153776.9999,,5033430001,502.0,50,9602,SI36,0101000020110F000088A3A29119775FC1DF237068CEE35241,Transportation,Parking Lots and Garages,Public Park and Ride Lot,,,,,,,,Public,Metropolitan Transportation Authority,MTA,MTA: State,Metropolitan Transportation Authority,MTA,,MTA,MTA: Selected Facilities and Program Sites Database,MTA: http://www1.nyc.gov/site/planning/data-maps/open-data/dwn-selfac.page,MTA: 2015-03-01,mta_facilities_sfpsd,Core Infrastructure and Transportation
30200,0101000020E6100000317E1AF7E67852C09ED1562591534440,,101728,5402060.0,,Cozine,900,Cozine Avenue,900 Cozine Avenue,Brooklyn,Brooklyn,3.0,11207.0,40.652867,-73.88909699999999,1015022.988,177153.00600000002,3098065,3044100001,305.0,42,110400,BK82,0101000020110F00007245CE2984605FC1E5C0336BFEEC5241,Transportation,Rail Yards and Maintenance,NYCT Maintenance and Other Facility,,,,,,,,Public,Metropolitan Transportation Authority,MTA,MTA: State,Metropolitan Transportation Authority,MTA,,MTA,MTA: Selected Facilities and Program Sites Database,MTA: http://www1.nyc.gov/site/planning/data-maps/open-data/dwn-selfac.page,MTA: 2015-03-01,mta_facilities_sfpsd,Core Infrastructure and Transportation
30240,0101000020E61000000EDDEC0F947E52C0335019FF3E4B4440,87461;87459;87469;87471;87473;87464;87460;87468;87467;87465;4498;87458,39820,5401012.0,,Coney Island,2556,Mc Donald Avenue,2556 Mc Donald Avenue,Brooklyn,Brooklyn,3.0,11223.0,40.58786,-73.977787,990419.6383,153450.3651,3412409,3072080040,313.0,47,30800,BK26,0101000020110F000085EE0B65286A5FC139B000F7AEE35241,Transportation,Rail Yards and Maintenance,NYCT Subway Yard,,,,,,,City Owned,Public,Metropolitan Transportation Authority,MTA,MTA: State,Metropolitan Transportation Authority,MTA,MTA,MTA;NYCDCAS,MTA: Selected Facilities and Program Sites Database;NYCDCAS: City Owned and Leased Properties,MTA: http://www1.nyc.gov/site/planning/data-maps/open-data/dwn-selfac.page;NYCDCAS: http://www1.nyc.gov/site/planning/data-maps/open-data/dwn-colp.page,MTA: 2015-03-01;NYCDCAS: 2017-06-01,dcas_facilities_colp;mta_facilities_sfpsd,Core Infrastructure and Transportation
30501,0101000020E61000009488F02F827C52C07F8978EBFC614440,,162580,,,East Promenade,40,River Road,40 River Road,New York,Manhattan,1.0,10044.0,40.765531,-73.94544599999999,999361.9999,218185.0,,1013730001,108.0,5,23802,MN31,0101000020110F000044FB4A59A4665FC1E342F9B326FD5241,Parks and Plazas,Parks,City-State Park,,,,,,,City Owned,Public,Roosevelt Island Operating Corporation,RIOC,RIOC: State,Roosevelt Island Operating Corporation,RIOC,NYCDEP;NYCDOE;NYCFDNY,NYCDCAS;RIOC,NYCDCAS: City Owned and Leased Properties;RIOC: Selected Facilities and Program Sites Database,NYCDCAS: http://www1.nyc.gov/site/planning/data-maps/open-data/dwn-colp.page;RIOC: http://www1.nyc.gov/site/planning/data-maps/open-data/dwn-selfac.page,NYCDCAS: 2017-06-01;RIOC: 2015-03-01,dcas_facilities_colp;rioc_facilities_sfpsd,"Parks, Gardens, and Historical Sites"
30546,0101000020E610000021753BFBCA7552C0A41820D1046C4440,172827,196020,5402068.0,,Westchester / Pelham,,,Waters Avenue,Bronx,Bronx,2.0,10461.0,40.843897,-73.840514,1028377.0,246771.9999,,2041380001,211.0,13,28400,BX37,0101000020110F0000E6F5C61A3C5B5FC1D50DEAEC67085341,Transportation,Rail Yards and Maintenance,NYCT Maintenance and Other Facility,,,,,,,City Owned,Public,Metropolitan Transportation Authority,MTA,MTA: State,Metropolitan Transportation Authority,MTA,MTA,MTA;NYCDCAS,MTA: Selected Facilities and Program Sites Database;NYCDCAS: City Owned and Leased Properties,MTA: http://www1.nyc.gov/site/planning/data-maps/open-data/dwn-selfac.page;NYCDCAS: http://www1.nyc.gov/site/planning/data-maps/open-data/dwn-colp.page,MTA: 2015-03-01;NYCDCAS: 2017-06-01,dcas_facilities_colp;mta_facilities_sfpsd,Core Infrastructure and Transportation
30619,0101000020E61000002CEFAA07CC7C52C0506EDBF7A8614440,,114681,,,Manhattan Park Lawn,40,River Road,40 River Road,New York,Manhattan,1.0,10044.0,40.762969,-73.94995300000001,998114.0001,217250.9999,,1013730001,108.0,5,23801,MN31,0101000020110F000091682DC721675FC12F7CB990C8FC5241,Parks and Plazas,Parks,City-State Park,,,,,RIOC: 1.330,RIOC: Acres,City Owned,Public,Roosevelt Island Operating Corporation,RIOC,RIOC: State,Roosevelt Island Operating Corporation,RIOC,NYCDEP;NYCDOE;NYCFDNY,NYCDCAS;RIOC,NYCDCAS: City Owned and Leased Properties;RIOC: Selected Facilities and Program Sites Database,NYCDCAS: http://www1.nyc.gov/site/planning/data-maps/open-data/dwn-colp.page;RIOC: http://www1.nyc.gov/site/planning/data-maps/open-data/dwn-selfac.page,NYCDCAS: 2017-06-01;RIOC: 2015-03-01,dcas_facilities_colp;rioc_facilities_sfpsd,"Parks, Gardens, and Historical Sites"
30776,0101000020E6100000FA97A432C57C52C03D61890794614440,,114670,,,Rivercross Lawn,40,River Road,40 River Road,New York,Manhattan,1.0,10044.0,40.76233,-73.949536,998229.651,217018.0114,,1013730001,108.0,5,23801,MN31,0101000020110F00000166482C16675FC11FA92A16B1FC5241,Parks and Plazas,Parks,City-State Park,,,,,RIOC: 0.750,RIOC: Acres,City Owned,Public,Roosevelt Island Operating Corporation,RIOC,RIOC: State,Roosevelt Island Operating Corporation,RIOC,NYCDEP;NYCDOE;NYCFDNY,NYCDCAS;RIOC,NYCDCAS: City Owned and Leased Properties;RIOC: Selected Facilities and Program Sites Database,NYCDCAS: http://www1.nyc.gov/site/planning/data-maps/open-data/dwn-colp.page;RIOC: http://www1.nyc.gov/site/planning/data-maps/open-data/dwn-selfac.page,NYCDCAS: 2017-06-01;RIOC: 2015-03-01,dcas_facilities_colp;rioc_facilities_sfpsd,"Parks, Gardens, and Historical Sites"
31495,0101000020E6100000D3307C444C7D52C0C6F8307BD9684440,,151544,5302109001.0,,Manhattanville Depot,666,West  133 Street,666 West  133 Street,New York,Manhattan,1.0,10027.0,40.819137,-73.95778,995935.7884,237713.5778,1059934,1019990001,109.0,7,21900,MN06,0101000020110F0000C62D3A9AFB675FC1A5ABD039D9045341,Transportation,Bus Depots and Terminals,MTA Bus Depot,,,,,,,City Owned,Public,Metropolitan Transportation Authority,MTA,MTA: State,Metropolitan Transportation Authority,MTA,MTA,MTA;NYCDCAS,MTA: Selected Facilities and Program Sites Database;NYCDCAS: City Owned and Leased Properties,MTA: http://www1.nyc.gov/site/planning/data-maps/open-data/dwn-selfac.page;NYCDCAS: http://www1.nyc.gov/site/planning/data-maps/open-data/dwn-colp.page,MTA: 2015-03-01;NYCDCAS: 2017-06-01,dcas_facilities_colp;mta_facilities_sfpsd,Core Infrastructure and Transportation
31651,0101000020E6100000DE1D19ABCD7C52C0588FFB56EB644440,,111069,5302111002.0,,Tuskegee Airmen,1552,Lexington Avenue,1552 Lexington Avenue,New York,Manhattan,1.0,10029.0,40.788432,-73.950053,998080.9779,226527.8714,1086037,1016270001,111.0,5,16600,MN33,0101000020110F00001F439F8F24675FC1B0AAB05570005341,Transportation,Bus Depots and Terminals,MTA Bus Depot,,,,,,,,Public,Metropolitan Transportation Authority,MTA,MTA: State,Metropolitan Transportation Authority,MTA,,MTA,MTA: Selected Facilities and Program Sites Database,MTA: http://www1.nyc.gov/site/planning/data-maps/open-data/dwn-selfac.page,MTA: 2015-03-01,mta_facilities_sfpsd,Core Infrastructure and Transportation
31653,0101000020E6100000BDE5EAC7268052C010CD3CB9A65E4440,,34442,5402099.0,,NYCT Facility,74,8 Avenue,74 8 Avenue,New York,Manhattan,1.0,10011.0,40.739463,-74.002367,983594.0,208683.0,,1006180005,102.0,3,7700,MN23,0101000020110F000069C6F673D46C5FC1E707C00869F95241,Transportation,Rail Yards and Maintenance,NYCT Subway Yard,,,,,,,,Public,Metropolitan Transportation Authority,MTA,MTA: State,Metropolitan Transportation Authority,MTA,,MTA,MTA: Selected Facilities and Program Sites Database,MTA: http://www1.nyc.gov/site/planning/data-maps/open-data/dwn-selfac.page,MTA: 2015-03-01,mta_facilities_sfpsd,Core Infrastructure and Transportation
32268,0101000020E610000053B4722F307852C054FF209221574440,,156757,5303305002.0,,MaggieS Trans,234,Logan Street,234 Logan Street,Brooklyn,Brooklyn,3.0,11208.0,40.680712,-73.877941,1018104.445,187301.6028,3092605,3041370039,305.0,37,117400,BK83,0101000020110F0000456E78B14D5F5FC1DAB3D60DFCF05241,Transportation,Bus Depots and Terminals,MTA Paratransit Vehicle Depot,,,,,,,,Non-public,Proprietary,Non-public,MTA: State,Metropolitan Transportation Authority,MTA,,MTA,MTA: Selected Facilities and Program Sites Database,MTA: http://www1.nyc.gov/site/planning/data-maps/open-data/dwn-selfac.page,MTA: 2015-03-01,mta_facilities_sfpsd,Core Infrastructure and Transportation
32900,0101000020E6100000685A6265348152C0A6ED5F5969584440,,21219,,,Colonels Row,1,Governors Island,1 Governors Island,New York,Manhattan,1.0,10004.0,40.690715000000004,-74.018823,979029.9999,190923.0001,,1000010010,101.0,1,500,MN99,0101000020110F0000CBDCDE6B9E6E5FC1FA664B2B6BF25241,Parks and Plazas,Parks,City-State Park,,,,,TGI: 2.000,TGI: Acres,,Public,Trust for Governors Island,TGI,TGI: City-State,Trust for Governors Island,TGI,,TGI,TGI: Selected Facilities and Program Sites Database,TGI: http://www1.nyc.gov/site/planning/data-maps/open-data/dwn-selfac.page,TGI: 2015-03-01,tgi_facilities_sfpsd,"Parks, Gardens, and Historical Sites"
33211,0101000020E6100000A54DD53DB27C52C0AF963B33C1644440,111000,110945,5402057.0,,99th St.,1782,3 Avenue,1782 3 Avenue,New York,Manhattan,1.0,10029.0,40.787146,-73.948379,998544.7481,226059.7625,1051753,1016260040,111.0,5,16600,MN33,0101000020110F00002D124CF9F5665FC1831FBF1041005341,Transportation,Rail Yards and Maintenance,NYCT Maintenance and Other Facility,,,,,,,City Owned,Public,Metropolitan Transportation Authority,MTA,MTA: State,Metropolitan Transportation Authority,MTA,MTA,MTA;NYCDCAS,MTA: Selected Facilities and Program Sites Database;NYCDCAS: City Owned and Leased Properties,MTA: http://www1.nyc.gov/site/planning/data-maps/open-data/dwn-selfac.page;NYCDCAS: http://www1.nyc.gov/site/planning/data-maps/open-data/dwn-colp.page,MTA: 2015-03-01;NYCDCAS: 2017-06-01,dcas_facilities_colp;mta_facilities_sfpsd,Core Infrastructure and Transportation
33576,0101000020E6100000757286E28E7B52C011381268B05F4440,,116181,5407002.0,,Sunnyside Yard,,,Skillman Avenue,Long Island City,Queens,4.0,11101.0,40.747571,-73.930596,1003480.6290000001,211644.36899999998,4551444,4002390001,402.0,26,17100,QN31,0101000020110F000068B43F1307655FC181403ADC92FA5241,Transportation,Rail Yards and Maintenance,Amtrak Yard,,,,,,,,Public,Amtrak,Amtrak,Amtrak: Federal,Amtrak,Amtrak,,Amtrak,Amtrak: Selected Facilities and Program Sites Database,Amtrak: http://www1.nyc.gov/site/planning/data-maps/open-data/dwn-selfac.page,Amtrak: 2015-03-01,amtrak_facilities_sfpsd,Core Infrastructure and Transportation
33634,0101000020E61000003A94A12AA67152C0B471C45A7C5A4440,,180189,5406003.0,,Hillside Support Facility,182-53,Liberty Avenue,182-53 Liberty Avenue,Saint Albans,Queens,4.0,11412.0,40.706920000000004,-73.775767,1046419.0,196905.9999,,,412.0,27,44400,QN61,0101000020110F000059412E3432545FC134C88304BEF45241,Transportation,Rail Yards and Maintenance,LIRR Maintenance and Other Facility,,,,,,,,Public,Metropolitan Transportation Authority,MTA,MTA: State,Metropolitan Transportation Authority,MTA,,MTA,MTA: Selected Facilities and Program Sites Database,MTA: http://www1.nyc.gov/site/planning/data-maps/open-data/dwn-selfac.page,MTA: 2015-03-01,mta_facilities_sfpsd,Core Infrastructure and Transportation
33939,0101000020E6100000126BF129007952C0FC523F6F2A624440,,120372,5402081.0,,NYCT Facility,78-15,Grand Central Parkway Sr North,78-15 Grand Central Parkway Sr North,East Elmhurst,Queens,4.0,11370.0,40.76692,-73.890635,1014544.503,218705.4239,4449336,4010107501,401.0,22,31700,QN72,0101000020110F00008FB334F7AE605FC11749E1BD59FD5241,Transportation,Rail Yards and Maintenance,NYCT Subway Yard,,,,,,,,Public,Metropolitan Transportation Authority,MTA,MTA: State,Metropolitan Transportation Authority,MTA,,MTA,MTA: Selected Facilities and Program Sites Database,MTA: http://www1.nyc.gov/site/planning/data-maps/open-data/dwn-selfac.page,MTA: 2015-03-01,mta_facilities_sfpsd,Core Infrastructure and Transportation
34100,0101000020E61000006AA510C8258052C0FBC9181F66534440,,121905,5302307001.0,,Jackie Gleason Depot,871,5 Avenue,871 5 Avenue,Brooklyn,Brooklyn,3.0,11232.0,40.651554,-74.002306,983610.2598,176655.1435,3339248,3009030180,307.0,38,8800,BK34,0101000020110F00007E675FC1D26C5FC1EB7F5541CEEC5241,Transportation,Bus Depots and Terminals,MTA Bus Depot,,,,,,,,Public,Metropolitan Transportation Authority,MTA,MTA: State,Metropolitan Transportation Authority,MTA,,MTA,MTA: Selected Facilities and Program Sites Database,MTA: http://www1.nyc.gov/site/planning/data-maps/open-data/dwn-selfac.page,MTA: 2015-03-01,mta_facilities_sfpsd,Core Infrastructure and Transportation
34650,0101000020E6100000126BF129007952C0FC523F6F2A624440,,20315,5401023.0,,Jamaica,78-15,Grand Central Parkway Sr North,78-15 Grand Central Parkway Sr North,East Elmhurst,Queens,4.0,11370.0,40.76692,-73.890635,1014544.503,218705.4239,4449336,4010107501,401.0,22,31700,QN72,0101000020110F00008FB334F7AE605FC11749E1BD59FD5241,Transportation,Rail Yards and Maintenance,NYCT Subway Yard,,,,,,,,Public,Metropolitan Transportation Authority,MTA,MTA: State,Metropolitan Transportation Authority,MTA,,MTA,MTA: Selected Facilities and Program Sites Database,MTA: http://www1.nyc.gov/site/planning/data-maps/open-data/dwn-selfac.page,MTA: 2015-03-01,mta_facilities_sfpsd,Core Infrastructure and Transportation
34709,0101000020E61000008F6E8445458C52C0D7DF12807F444440,,117637,,,Hugenot Avenue Park & Ride,,,Hugenot Ave & Drumgoole Rd E,Staten Island,Staten Island,5.0,10312.0,40.535140999999996,-74.191728,930955.9999,134301.0001,,,503.0,51,17005,SI01,0101000020110F0000C83A73586A815FC13CFDFCBE23DC5241,Transportation,Parking Lots and Garages,Public Park and Ride Lot,,,,,,,,Public,NYC Department of Transportation,NYCDOT,NYSDOT: State,NYS Department of Transportation,NYSDOT,,NYSDOT,NYSDOT: Selected Facilities and Program Sites Database,NYSDOT: http://www1.nyc.gov/site/planning/data-maps/open-data/dwn-selfac.page,NYSDOT: 2015-03-01,nysdot_facilities_sfpsd,Core Infrastructure and Transportation
34739,0101000020E61000000DC51D6FF27852C0FA0E7EE200704440,3975,105018,5401019.0,,Concourse,3119,Jerome Ave &  204 St,3119 Jerome Ave &  204 St,Bronx,Bronx,2.0,10468.0,40.875027,-73.889797,1014727.0,258092.9999,,2032470110;2032510101,207.0,11,40900,BX28,0101000020110F00004D3FEBA497605FC152754A67E10C5341,Transportation,Rail Yards and Maintenance,NYCT Subway Yard,,,,,,,City Owned,Public,Metropolitan Transportation Authority,MTA,MTA: State,Metropolitan Transportation Authority,MTA,MTA,MTA;NYCDCAS,MTA: Selected Facilities and Program Sites Database;NYCDCAS: City Owned and Leased Properties,MTA: http://www1.nyc.gov/site/planning/data-maps/open-data/dwn-selfac.page;NYCDCAS: http://www1.nyc.gov/site/planning/data-maps/open-data/dwn-colp.page,MTA: 2015-03-01;NYCDCAS: 2017-06-01,dcas_facilities_colp;mta_facilities_sfpsd,Core Infrastructure and Transportation
35033,0101000020E610000018080264E87A52C0B328ECA2E85B4440,,132566,5302405002.0,,Grand Ave Depot,48-05,Grand Avenue,48-05 Grand Avenue,Maspeth,Queens,4.0,11378.0,40.718037,-73.920434,1006306.287,200886.9212,4058955,4026020001,405.0,30,21900,QN31,0101000020110F000009409D44EC635FC138E1562E56F65241,Transportation,Bus Depots and Terminals,MTA Bus Depot,,,,,,,,Public,Metropolitan Transportation Authority,MTA,MTA: State,Metropolitan Transportation Authority,MTA,,MTA,MTA: Selected Facilities and Program Sites Database,MTA: http://www1.nyc.gov/site/planning/data-maps/open-data/dwn-selfac.page,MTA: 2015-03-01,mta_facilities_sfpsd,Core Infrastructure and Transportation
35065,0101000020E6100000D3BD4EEACB7552C0D252793BC2694440,,112919,5303210001.0,,Gvc II Para Parking Facility,905,Brush Avenue,905 Brush Avenue,Bronx,Bronx,2.0,10465.0,40.826240000000006,-73.840571,1028372.973,240339.0585,2079871,2055410200,210.0,13,9000,BX09,0101000020110F0000ACE5DEB03D5B5FC13E457472DE055341,Transportation,Bus Depots and Terminals,MTA Paratransit Vehicle Depot,,,,,,,,Non-public,Proprietary,Non-public,MTA: State,Metropolitan Transportation Authority,MTA,,MTA,MTA: Selected Facilities and Program Sites Database,MTA: http://www1.nyc.gov/site/planning/data-maps/open-data/dwn-selfac.page,MTA: 2015-03-01,mta_facilities_sfpsd,Core Infrastructure and Transportation
35181,0101000020E6100000F50F2219727152C0C9207711A65A4440,94718,159935,5405003.0,,Hillside Yard,182-53,Liberty Avenue,182-53 Liberty Avenue,Saint Albans,Queens,4.0,11412.0,40.708193,-73.772589,1047299.0,197372.0,,,412.0,27,44400,QN61,0101000020110F0000FCD2AFC2D9535FC18C25B0C0ECF45241,Transportation,Rail Yards and Maintenance,LIRR Yard,,,,,,,,Public,Metropolitan Transportation Authority,MTA,MTA: State,Metropolitan Transportation Authority,MTA,,MTA,MTA: Selected Facilities and Program Sites Database,MTA: http://www1.nyc.gov/site/planning/data-maps/open-data/dwn-selfac.page,MTA: 2015-03-01,mta_facilities_sfpsd,Core Infrastructure and Transportation
35276,0101000020E61000002D5C5661337A52C03AB2F2CB60664440,,135253,5402052.0,,NYCT Facility,100,Locust Avenue,100 Locust Avenue,Bronx,Bronx,2.0,10454.0,40.799828999999995,-73.909386,1009337.804,230689.2427,2117493,2025950001,201.0,17,1900,BX39,0101000020110F0000B221B8CDB8625FC11711E64A13025341,Transportation,Rail Yards and Maintenance,NYCT Maintenance and Other Facility,,,,,,,City Owned,Public,Metropolitan Transportation Authority,MTA,MTA: State,Metropolitan Transportation Authority,MTA,MTA;NYCDCAS;NYPD,MTA;NYCDCAS,MTA: Selected Facilities and Program Sites Database;NYCDCAS: City Owned and Leased Properties,MTA: http://www1.nyc.gov/site/planning/data-maps/open-data/dwn-selfac.page;NYCDCAS: http://www1.nyc.gov/site/planning/data-maps/open-data/dwn-colp.page,MTA: 2015-03-01;NYCDCAS: 2017-06-01,dcas_facilities_colp;mta_facilities_sfpsd,Core Infrastructure and Transportation
35398,0101000020E6100000130B7C45B77C52C0CF15A584605F4440,129560;129552,129549,5405001.0,,Arch Street Yard,46-30,21 Street,46-30 21 Street,Long Island City,Queens,4.0,11101.0,40.745133,-73.948686,998468.6213,210752.8837,4000482,4000560051,402.0,26,700,QN31,0101000020110F000053A48084FE665FC1782C8C4D39FA5241,Transportation,Rail Yards and Maintenance,LIRR Yard,,,,,,,,Public,Metropolitan Transportation Authority,MTA,MTA: State,Metropolitan Transportation Authority,MTA,,MTA,MTA: Selected Facilities and Program Sites Database,MTA: http://www1.nyc.gov/site/planning/data-maps/open-data/dwn-selfac.page,MTA: 2015-03-01,mta_facilities_sfpsd,Core Infrastructure and Transportation
35419,0101000020E610000010B1C1C2497452C0CE8AA8893E594440,90151;90159,40677,5405008.0,,Morris Park Yard,,,Van Wyck Expressway,Richmond Hill,Queens,4.0,11418.0,40.697221,-73.817002,1034994.0,193345.9998,4602536,4093750058;4093750205;4093750350,409.0,29,14202,QN54,0101000020110F0000F008C5C4AD585FC16A3BDDF859F35241,Transportation,Rail Yards and Maintenance,LIRR Yard,,,,,,,,Public,Metropolitan Transportation Authority,MTA,MTA: State,Metropolitan Transportation Authority,MTA,,MTA,MTA: Selected Facilities and Program Sites Database,MTA: http://www1.nyc.gov/site/planning/data-maps/open-data/dwn-selfac.page,MTA: 2015-03-01,mta_facilities_sfpsd,Core Infrastructure and Transportation
35481,0101000020E61000000DC17119377152C06AA2CF4719594440,94428;94429,94427,5405017.0,,Dunkirk/St Albans Yard,,,Dunkirk Street,Saint Albans,Queens,4.0,11412.0,40.696084,-73.76898800000001,1048309.0,192963.0,4220018,4103150101;4103150161;4103150163,412.0,27,42400,QN08,0101000020110F00005B3B8D8B75535FC1B8A29F3C30F35241,Transportation,Rail Yards and Maintenance,LIRR Yard,,,,,,,,Public,Metropolitan Transportation Authority,MTA,MTA: State,Metropolitan Transportation Authority,MTA,,MTA,MTA: Selected Facilities and Program Sites Database,MTA: http://www1.nyc.gov/site/planning/data-maps/open-data/dwn-selfac.page,MTA: 2015-03-01,mta_facilities_sfpsd,Core Infrastructure and Transportation
35644,0101000020E61000004F0306499F7B52C0371B2B31CF664440,,155849,5302111001.0,,126th St Depot,2460,2 Avenue,2460 2 Avenue,New York,Manhattan,1.0,10035.0,40.803197999999995,-73.931597,1003187.483,231911.0147,1054802,1018030001,111.0,8,24200,MN34,0101000020110F0000B519D2EE22655FC147EDE9268F025341,Transportation,Bus Depots and Terminals,MTA Bus Depot,,,,,,,City Owned,Public,Metropolitan Transportation Authority,MTA,MTA: State,Metropolitan Transportation Authority,MTA,MTA,MTA;NYCDCAS,MTA: Selected Facilities and Program Sites Database;NYCDCAS: City Owned and Leased Properties,MTA: http://www1.nyc.gov/site/planning/data-maps/open-data/dwn-selfac.page;NYCDCAS: http://www1.nyc.gov/site/planning/data-maps/open-data/dwn-colp.page,MTA: 2015-03-01;NYCDCAS: 2017-06-01,dcas_facilities_colp;mta_facilities_sfpsd,Core Infrastructure and Transportation
36078,0101000020E61000000932022A1C7F52C06D01A1F5F0614440,,167499,5402053.0,,NYCT Facility,333,West   53 Street,333 West   53 Street,New York,Manhattan,1.0,10019.0,40.765166,-73.986094,988102.2215,218047.5124,1025391,1010440003,104.0,3,13300,MN15,0101000020110F0000C3CCD4930F6B5FC131CF924A19FD5241,Transportation,Rail Yards and Maintenance,NYCT Maintenance and Other Facility,,,,,,,City Owned,Public,Metropolitan Transportation Authority,MTA,MTA: State,Metropolitan Transportation Authority,MTA,MTA,MTA;NYCDCAS,MTA: Selected Facilities and Program Sites Database;NYCDCAS: City Owned and Leased Properties,MTA: http://www1.nyc.gov/site/planning/data-maps/open-data/dwn-selfac.page;NYCDCAS: http://www1.nyc.gov/site/planning/data-maps/open-data/dwn-colp.page,MTA: 2015-03-01;NYCDCAS: 2017-06-01,dcas_facilities_colp;mta_facilities_sfpsd,Core Infrastructure and Transportation
36171,0101000020E61000006153E751F17D52C0B8CA13083B574440,163275;86855;26362;39814;168141;86854,119096,5405011.0,,Vd Yard,516,Vanderbilt Avenue,516 Vanderbilt Avenue,Brooklyn,Brooklyn,3.0,11238.0,40.681489,-73.967854,993165.9999,187562.9999,,3011200001;3011200019;3011200028;3011200035;3011210001;3011210042;3011210047,302.0,35,16300,BK64,0101000020110F00000615E9F513695FC193A3809118F15241,Transportation,Rail Yards and Maintenance,LIRR Yard,,,,,,,,Public,Metropolitan Transportation Authority,MTA,MTA: State,Metropolitan Transportation Authority,MTA,,MTA,MTA: Selected Facilities and Program Sites Database,MTA: http://www1.nyc.gov/site/planning/data-maps/open-data/dwn-selfac.page,MTA: 2015-03-01,mta_facilities_sfpsd,Core Infrastructure and Transportation
36290,0101000020E61000003AE7A7380E7A52C0A7B1BD16F44E4440,,181322,5303318002.0,,Star Cruiser Para,2210,East   69 Street,2210 East   69 Street,Brooklyn,Brooklyn,3.0,11234.0,40.616824,-73.90711800000001,1010036.4920000001,164015.797,3237828,3084370036,318.0,46,70600,BK45,0101000020110F000027F878AF79625FC1FAD38DA1D4E75241,Transportation,Bus Depots and Terminals,MTA Paratransit Vehicle Depot,,,,,,,,Non-public,Proprietary,Non-public,MTA: State,Metropolitan Transportation Authority,MTA,,MTA,MTA: Selected Facilities and Program Sites Database,MTA: http://www1.nyc.gov/site/planning/data-maps/open-data/dwn-selfac.page,MTA: 2015-03-01,mta_facilities_sfpsd,Core Infrastructure and Transportation
36380,0101000020E61000007CD6355A0E7A52C04FE78A5242604440,,116203,5402073.0,,NYCT Facility,33-33,54 Street,33-33 54 Street,Woodside,Queens,4.0,11377.0,40.752024,-73.907126,1009982.182,213273.0141,4027261,4011930077,402.0,26,25500,QN63,0101000020110F000071D677E879625FC1C697E97136FB5241,Transportation,Rail Yards and Maintenance,NYCT Maintenance and Other Facility,,,,,,,,Public,Metropolitan Transportation Authority,MTA,MTA: State,Metropolitan Transportation Authority,MTA,,MTA,MTA: Selected Facilities and Program Sites Database,MTA: http://www1.nyc.gov/site/planning/data-maps/open-data/dwn-selfac.page,MTA: 2015-03-01,mta_facilities_sfpsd,Core Infrastructure and Transportation
36407,0101000020E6100000F10F5B7A347C52C0D272A087DA624440,,114722,,,Lighthouse Park,40,River Road,40 River Road,New York,Manhattan,1.0,10044.0,40.772294,-73.940703,1000674.0,220650.0,,1013730001,108.0,5,23802,MN31,0101000020110F000095F0095A20665FC1A8F60E381FFE5241,Parks and Plazas,Parks,City-State Park,,,,,RIOC: 3.350,RIOC: Acres,City Owned,Public,Roosevelt Island Operating Corporation,RIOC,RIOC: State,Roosevelt Island Operating Corporation,RIOC,NYCDEP;NYCDOE;NYCFDNY,NYCDCAS;RIOC,NYCDCAS: City Owned and Leased Properties;RIOC: Selected Facilities and Program Sites Database,NYCDCAS: http://www1.nyc.gov/site/planning/data-maps/open-data/dwn-colp.page;RIOC: http://www1.nyc.gov/site/planning/data-maps/open-data/dwn-selfac.page,NYCDCAS: 2017-06-01;RIOC: 2015-03-01,dcas_facilities_colp;rioc_facilities_sfpsd,"Parks, Gardens, and Historical Sites"
36452,0101000020E61000007CD6355A0E7A52C04FE78A5242604440,,55602,5402090.0,,NYCT Facility,33-33,54 Street,33-33 54 Street,Woodside,Queens,4.0,11377.0,40.752024,-73.907126,1009982.182,213273.0141,4027261,4011930077,402.0,26,25500,QN63,0101000020110F000071D677E879625FC1C697E97136FB5241,Transportation,Rail Yards and Maintenance,NYCT Subway Yard,,,,,,,,Public,Metropolitan Transportation Authority,MTA,MTA: State,Metropolitan Transportation Authority,MTA,,MTA,MTA: Selected Facilities and Program Sites Database,MTA: http://www1.nyc.gov/site/planning/data-maps/open-data/dwn-selfac.page,MTA: 2015-03-01,mta_facilities_sfpsd,Core Infrastructure and Transportation
36498,0101000020E61000007E1EA33CF37752C089EDEE01BA6B4440,,24134,5402075.0,,NYCT Facility,1141,East  180 Street,1141 East  180 Street,Bronx,Bronx,2.0,10460.0,40.841614,-73.87422099999999,1019051.97,245924.8866,2042510,2040110205,206.0,15,22000,BX17,0101000020110F00002AAC862AE65E5FC122CAA3F013085341,Transportation,Rail Yards and Maintenance,NYCT Maintenance and Other Facility,,,,,,,,Public,Metropolitan Transportation Authority,MTA,MTA: State,Metropolitan Transportation Authority,MTA,,MTA,MTA: Selected Facilities and Program Sites Database,MTA: http://www1.nyc.gov/site/planning/data-maps/open-data/dwn-selfac.page,MTA: 2015-03-01,mta_facilities_sfpsd,Core Infrastructure and Transportation
